{"type":"FeatureCollection","asof":"2026-09-19","features":[{"type":"Feature","properties":{"id":"EXC-001","name":"뉴타운맨션 삼호아파트지구 재건축정비사업 지하주차장 연결통로 공사","company":"개인사용자","address":"경기도 안양시 동안구 비산3동 354-10번지 일원","start":"2026-04-01","end":"2026-11-30","status":"진행중"},"geometry":{"type":"Point","coordinates":[126.945534,37.401154]}},{"type":"Feature","properties":{"id":"EXC-002","name":"2025년 안양지역 열수송관 성능 및 취약 개선공사(안양시청앞)","company":"GS파워(주)","address":"안양시 동안구 관양동 1618번지 일원","start":"2026-08-28","end":"2026-10-22","status":"진행중"},"geometry":{"type":"Point","coordinates":[126.957599,37.393265]}},{"type":"Feature","properties":{"id":"EXC-003","name":"안양관양 관악로 우회도로 개설공사 중 상수도 이설 및 철거공사","company":"개인사용자","address":"안양시 동안구 관양동 1563번지 일원","start":"2026-08-24","end":"2026-12-31","status":"진행중"},"geometry":{"type":"Point","coordinates":[126.972302,37.404735]}},{"type":"Feature","properties":{"id":"EXC-004","name":"안양관양 관악로 우회도로 개설공사 중 상수도 이설 및 철거공사","company":"개인사용자","address":"안양시 동안구 관양동 1563번지 일원","start":"2026-08-24","end":"2026-12-31","status":"진행중"},"geometry":{"type":"Point","coordinates":[126.972297,37.405006]}},{"type":"Feature","properties":{"id":"EXC-005","name":"안양관양 관악로 우회도로 개설공사 중 상수도 이설 및 철거공사","company":"개인사용자","address":"안양시 동안구 관양동 1563번지 일원","start":"2026-08-24","end":"2026-12-31","status":"진행중"},"geometry":{"type":"Point","coordinates":[126.972228,37.404742]}},{"type":"Feature","properties":{"id":"EXC-006","name":"안양관양 관악로 우회도로 개설공사 중 상수도 이설 및 철거공사","company":"개인사용자","address":"안양시 동안구 관양동 1563번지 일원","start":"2026-08-24","end":"2026-12-31","status":"진행중"},"geometry":{"type":"Point","coordinates":[126.97219,37.405048]}},{"type":"Feature","properties":{"id":"EXC-007","name":"안양지역 열수송관 개선공사_관양동 1563_흥안대로","company":"GS파워(주)","address":"경기도 안양시 동안구 관양동 1563 일원","start":"2026-08-10","end":"2026-11-10","status":"진행중"},"geometry":{"type":"Point","coordinates":[126.977019,37.399346]}},{"type":"Feature","properties":{"id":"EXC-008","name":"안양로 지자체 지중화공사 한전패드(장내25) ~ LGU+맨홀 연결","company":"메가통신","address":"안양로 357번지 일원","start":"2026-09-13","end":"2026-09-22","status":"진행중"},"geometry":{"type":"Point","coordinates":[126.917494,37.4033]}},{"type":"Feature","properties":{"id":"EXC-009","name":"안양로 지자체 지중화공사 한전패드(만안17) ~ LGU+맨홀 연결","company":"메가통신","address":"안양로 374번지 일원","start":"2026-09-13","end":"2026-10-02","status":"진행중"},"geometry":{"type":"Point","coordinates":[126.916909,37.404456]}},{"type":"Feature","properties":{"id":"EXC-010","name":"석수동 319-4 도시가스 이설공사","company":"(주)삼천리","address":"석수동 319-4외 1개소","start":"2026-09-01","end":"2026-10-30","status":"진행중"},"geometry":{"type":"Point","coordinates":[126.909483,37.412905]}},{"type":"Feature","properties":{"id":"EXC-011","name":"석수동 319-4 도시가스 이설공사","company":"(주)삼천리","address":"석수동 319-4외 1개소","start":"2026-09-01","end":"2026-10-30","status":"진행중"},"geometry":{"type":"Point","coordinates":[126.91007,37.412201]}},{"type":"Feature","properties":{"id":"EXC-012","name":"코스콤 데이터센터 신축공사_완화차로 공사","company":"개인사용자","address":"안양시 호계동 1026-11번지 일원","start":"2026-08-01","end":"2026-11-30","status":"진행중"},"geometry":{"type":"Point","coordinates":[126.948408,37.372201]}},{"type":"Feature","properties":{"id":"EXC-013","name":"2026년 안양 cctv 관로공사_만안구","company":"KT안양지사","address":"경기도 안양시 만안구 안양동 16-1번지 외 3개소","start":"2026-07-13","end":"2026-10-10","status":"진행중"},"geometry":{"type":"Point","coordinates":[126.913219,37.41019]}},{"type":"Feature","properties":{"id":"EXC-014","name":"2026년 안양 cctv 관로공사_만안구","company":"KT안양지사","address":"경기도 안양시 만안구 안양동 16-1번지 외 3개소","start":"2026-07-13","end":"2026-10-10","status":"진행중"},"geometry":{"type":"Point","coordinates":[126.915477,37.414066]}},{"type":"Feature","properties":{"id":"EXC-015","name":"2026년 안양 cctv 관로공사_만안구","company":"KT안양지사","address":"경기도 안양시 만안구 안양동 16-1번지 외 3개소","start":"2026-07-13","end":"2026-10-10","status":"진행중"},"geometry":{"type":"Point","coordinates":[126.916237,37.416319]}},{"type":"Feature","properties":{"id":"EXC-016","name":"2026년 안양 cctv 관로공사_만안구","company":"KT안양지사","address":"경기도 안양시 만안구 안양동 16-1번지 외 3개소","start":"2026-07-13","end":"2026-10-10","status":"진행중"},"geometry":{"type":"Point","coordinates":[126.917846,37.417379]}},{"type":"Feature","properties":{"id":"EXC-017","name":"2026년 안양 cctv 관로공사_만안구","company":"KT안양지사","address":"경기도 안양시 만안구 안양동 16-1번지 외 3개소","start":"2026-07-13","end":"2026-10-10","status":"진행중"},"geometry":{"type":"Point","coordinates":[126.91291,37.412397]}},{"type":"Feature","properties":{"id":"EXC-018","name":"2026년 안양 cctv 관로공사_만안구","company":"KT안양지사","address":"경기도 안양시 만안구 안양동 16-1번지 외 3개소","start":"2026-07-13","end":"2026-10-10","status":"진행중"},"geometry":{"type":"Point","coordinates":[126.91337,37.412343]}},{"type":"Feature","properties":{"id":"EXC-019","name":"2026년 안양 cctv 관로공사_만안구","company":"KT안양지사","address":"경기도 안양시 만안구 안양동 16-1번지 외 3개소","start":"2026-07-13","end":"2026-10-10","status":"진행중"},"geometry":{"type":"Point","coordinates":[126.91277,37.41082]}},{"type":"Feature","properties":{"id":"EXC-020","name":"2026년 안양 cctv 관로공사_동안구","company":"KT안양지사","address":"경기도 안양시 동안구 비산동 577번지 외 3개소","start":"2026-07-13","end":"2026-10-10","status":"진행중"},"geometry":{"type":"Point","coordinates":[126.941051,37.392705]}},{"type":"Feature","properties":{"id":"EXC-021","name":"2026년 안양 cctv 관로공사_동안구","company":"KT안양지사","address":"경기도 안양시 동안구 비산동 577번지 외 3개소","start":"2026-07-13","end":"2026-10-10","status":"진행중"},"geometry":{"type":"Point","coordinates":[126.941375,37.391938]}},{"type":"Feature","properties":{"id":"EXC-022","name":"2026년 안양 cctv 관로공사_동안구","company":"KT안양지사","address":"경기도 안양시 동안구 비산동 577번지 외 3개소","start":"2026-07-13","end":"2026-10-10","status":"진행중"},"geometry":{"type":"Point","coordinates":[126.941862,37.389998]}},{"type":"Feature","properties":{"id":"EXC-023","name":"2026년 안양 cctv 관로공사_동안구","company":"KT안양지사","address":"경기도 안양시 동안구 비산동 577번지 외 3개소","start":"2026-07-13","end":"2026-10-10","status":"진행중"},"geometry":{"type":"Point","coordinates":[126.939332,37.3944]}},{"type":"Feature","properties":{"id":"EXC-024","name":"2026년 안양 cctv 관로공사_동안구","company":"KT안양지사","address":"경기도 안양시 동안구 비산동 577번지 외 3개소","start":"2026-07-13","end":"2026-10-10","status":"진행중"},"geometry":{"type":"Point","coordinates":[126.937379,37.395316]}},{"type":"Feature","properties":{"id":"EXC-025","name":"2026년 안양 cctv 관로공사_동안구","company":"KT안양지사","address":"경기도 안양시 동안구 비산동 577번지 외 3개소","start":"2026-07-13","end":"2026-10-10","status":"진행중"},"geometry":{"type":"Point","coordinates":[126.936382,37.395786]}},{"type":"Feature","properties":{"id":"EXC-026","name":"2026년 안양 cctv 관로공사_동안구","company":"KT안양지사","address":"경기도 안양시 동안구 비산동 577번지 외 3개소","start":"2026-07-13","end":"2026-10-10","status":"진행중"},"geometry":{"type":"Point","coordinates":[126.937294,37.395834]}},{"type":"Feature","properties":{"id":"EXC-027","name":"군포-안양지역 전기공급시설 전력구공사(산본-안양) 설계용역","company":"개인사용자","address":"안양시 만안구 안양동 443,575,345","start":"2026-06-15","end":"2026-09-30","status":"진행중"},"geometry":{"type":"Point","coordinates":[126.936601,37.381102]}},{"type":"Feature","properties":{"id":"EXC-028","name":"군포-안양지역 전기공급시설 전력구공사(산본-안양) 설계용역","company":"개인사용자","address":"안양시 만안구 안양동 443,575,345","start":"2026-06-15","end":"2026-09-30","status":"진행중"},"geometry":{"type":"Point","coordinates":[126.932729,37.38547]}},{"type":"Feature","properties":{"id":"EXC-029","name":"군포-안양지역 전기공급시설 전력구공사(산본-안양) 설계용역","company":"개인사용자","address":"안양시 만안구 안양동 443,575,345","start":"2026-06-15","end":"2026-09-30","status":"진행중"},"geometry":{"type":"Point","coordinates":[126.930836,37.387721]}},{"type":"Feature","properties":{"id":"EXC-030","name":"군포-안양지역 전기공급시설 전력구공사(산본-안양) 설계용역","company":"개인사용자","address":"안양시 만안구 안양동 443,575,345","start":"2026-06-15","end":"2026-09-30","status":"진행중"},"geometry":{"type":"Point","coordinates":[126.937957,37.379706]}},{"type":"Feature","properties":{"id":"EXC-031","name":"군포-안양지역 전기공급시설 전력구공사(산본-안양) 설계용역","company":"개인사용자","address":"안양시 만안구 안양동 443,575,345","start":"2026-06-15","end":"2026-09-30","status":"진행중"},"geometry":{"type":"Point","coordinates":[126.939087,37.378265]}},{"type":"Feature","properties":{"id":"EXC-032","name":"군포-안양지역 전기공급시설 전력구공사(산본-안양) 설계용역","company":"개인사용자","address":"안양시 만안구 안양동 443,575,345","start":"2026-06-15","end":"2026-09-30","status":"진행중"},"geometry":{"type":"Point","coordinates":[126.934029,37.383894]}},{"type":"Feature","properties":{"id":"EXC-033","name":"군포-안양지역 전기공급시설 전력구공사(산본-안양) 설계용역","company":"개인사용자","address":"안양시 만안구 안양동 443,575,345","start":"2026-06-15","end":"2026-09-30","status":"진행중"},"geometry":{"type":"Point","coordinates":[126.935188,37.382588]}},{"type":"Feature","properties":{"id":"EXC-034","name":"안양 관양 관악우회도로 도시가스 이설공사(변경건)","company":"(주)삼천리","address":"관양동 1474-9번지 일원","start":"2026-04-30","end":"2026-10-31","status":"진행중"},"geometry":{"type":"Point","coordinates":[126.970223,37.405208]}},{"type":"Feature","properties":{"id":"EXC-035","name":"월곶~판교 복선전철 제6공구 건설공사(외부출입구#6)","company":"현대건설(주)","address":"경기도 안양시 만안구 안양동 90-21 일원","start":"2026-03-01","end":"2027-04-30","status":"진행중"},"geometry":{"type":"Point","coordinates":[126.923925,37.400831]}},{"type":"Feature","properties":{"id":"EXC-036","name":"월곶~판교 복선전철 제6공구 건설공사(외부출입구#6)","company":"현대건설(주)","address":"경기도 안양시 만안구 안양동 90-21 일원","start":"2026-03-01","end":"2027-04-30","status":"진행중"},"geometry":{"type":"Point","coordinates":[126.923925,37.400831]}},{"type":"Feature","properties":{"id":"EXC-037","name":"안양7동 하수도정비 중점관리지역 도시침수예방사업","company":"안양시청","address":"안양7동 일원","start":"2025-09-01","end":"2028-12-31","status":"진행중"},"geometry":{"type":"Point","coordinates":[126.938537,37.390728]}},{"type":"Feature","properties":{"id":"EXC-038","name":"안양7동 하수도정비 중점관리지역 도시침수예방사업","company":"안양시청","address":"안양7동 일원","start":"2025-09-01","end":"2028-12-31","status":"진행중"},"geometry":{"type":"Point","coordinates":[126.935142,37.389012]}},{"type":"Feature","properties":{"id":"EXC-039","name":"안양관양 관악로 우회도로 개설공사 중 상하수도 이설공사","company":"개인사용자","address":"안양시 동안구 관양동 1542외 8개필지","start":"2026-04-30","end":"2026-10-31","status":"진행중"},"geometry":{"type":"Point","coordinates":[126.970456,37.404971]}},{"type":"Feature","properties":{"id":"EXC-040","name":"안양관양 관악로 우회도로 개설공사","company":"개인사용자","address":"안양시 동안구 관양동 1542외 8개필지","start":"2025-09-22","end":"2029-02-28","status":"진행중"},"geometry":{"type":"Point","coordinates":[126.969532,37.404815]}},{"type":"Feature","properties":{"id":"EXC-041","name":"2025년 지하수오염 우려지역 조사 및 분석","company":"개인사용자","address":"만안구 안양동 235번지 총 2개소(설계도면 참조)","start":"2025-07-11","end":"2026-12-31","status":"진행중"},"geometry":{"type":"Point","coordinates":[126.938507,37.386357]}},{"type":"Feature","properties":{"id":"EXC-042","name":"신안산선 복선전철 민간투자사업 제7공구 송전선로공사","company":"개인사용자","address":"만안구박달로 산 91-25 ~산110-16도","start":"2025-03-01","end":"2026-11-30","status":"진행중"},"geometry":{"type":"Point","coordinates":[126.883184,37.405372]}},{"type":"Feature","properties":{"id":"EXC-043","name":"석수1동 삼막마을 우오수 분류화사업","company":"안양시청","address":"삼막로 일원","start":"2024-07-31","end":"2026-12-30","status":"진행중"},"geometry":{"type":"Point","coordinates":[126.91338,37.425041]}},{"type":"Feature","properties":{"id":"EXC-044","name":"월곶~판교 제5공구 노반신설 기타공사 만안정거장 및 본선환기구14(급기)","company":"(주)케이알산업","address":"경기도 안양시 만안구 석수동 333-1일원 , 경기도 안양시 만안구 안양동 408 일원","start":"2026-01-01","end":"2026-12-31","status":"진행중"},"geometry":{"type":"Point","coordinates":[126.91477,37.407229]}},{"type":"Feature","properties":{"id":"EXC-045","name":"월곶~판교 제5공구 노반신설 기타공사 만안정거장 및 본선환기구14(급기)","company":"(주)케이알산업","address":"경기도 안양시 만안구 석수동 333-1일원 , 경기도 안양시 만안구 안양동 408 일원","start":"2026-01-01","end":"2026-12-31","status":"진행중"},"geometry":{"type":"Point","coordinates":[126.909767,37.412974]}},{"type":"Feature","properties":{"id":"EXC-046","name":"월곶~판교 복선전철 제7공구 노반신설 기타공사","company":"(주)한화","address":"경기도 안양시 동안구 비산동 운동장사거리 일원","start":"2023-12-19","end":"2028-11-21","status":"진행중"},"geometry":{"type":"Point","coordinates":[126.95016,37.401883]}},{"type":"Feature","properties":{"id":"EXC-047","name":"월곶~판교 복선전철 제7공구 노반신설 기타공사","company":"(주)한화","address":"경기도 안양시 동안구 관양동 1542 일원","start":"2023-12-19","end":"2028-11-21","status":"진행중"},"geometry":{"type":"Point","coordinates":[126.964867,37.404533]}},{"type":"Feature","properties":{"id":"EXC-048","name":"인덕원~동탄 복선전철 제2공구 노반신설 기타공사","company":"지에스건설(인동)","address":"안양시 호계동 1023번지 일원","start":"2024-06-12","end":"2028-11-24","status":"진행중"},"geometry":{"type":"Point","coordinates":[126.960659,37.371021]}},{"type":"Feature","properties":{"id":"EXC-049","name":"인덕원~동탄 복선전철 제2공구 노반신설 기타공사","company":"지에스건설(인동)","address":"안양시 평촌동 987번지 일원","start":"2024-06-12","end":"2028-11-24","status":"진행중"},"geometry":{"type":"Point","coordinates":[126.972411,37.383889]}},{"type":"Feature","properties":{"id":"EXC-050","name":"인덕원동탄 복선전철 제2공구 노반신설 기타공사","company":"지에스건설(인동)","address":"안양시 호계동 975-10번지 일원","start":"2024-06-12","end":"2028-11-24","status":"진행중"},"geometry":{"type":"Point","coordinates":[126.958149,37.365359]}},{"type":"Feature","properties":{"id":"EXC-051","name":"인덕원~동탄 복선전철 제2공구 노반신설 기타공사","company":"지에스건설(인동)","address":"경기도 의왕시 내손동 357-12 일원","start":"2024-05-20","end":"2028-11-24","status":"진행중"},"geometry":{"type":"Point","coordinates":[126.968107,37.376067]}},{"type":"Feature","properties":{"id":"EXC-052","name":"월곶~판교  복선전철 제6공구 건설공사(환승센터)","company":"현대건설(주)","address":"경기도 만안구 만안로 224번길 9-2 일원","start":"2024-03-11","end":"2026-10-05","status":"진행중"},"geometry":{"type":"Point","coordinates":[126.923112,37.400393]}},{"type":"Feature","properties":{"id":"EXC-053","name":"월곶~판교 복선전철 제6공구 건설공사(안양정거장)","company":"현대건설(주)","address":"경기도 안양시 만안구 안양동 1189-1","start":"2023-01-02","end":"2026-10-05","status":"진행중"},"geometry":{"type":"Point","coordinates":[126.922345,37.397705]}},{"type":"Feature","properties":{"id":"EXC-054","name":"월곶~판교 복선전철 제6공구 건설공사","company":"현대건설(주)","address":"경기도 안양시 동안구 비산동 411도","start":"2022-07-18","end":"2026-10-05","status":"진행중"},"geometry":{"type":"Point","coordinates":[126.934542,37.398505]}},{"type":"Feature","properties":{"id":"EXC-055","name":"월곶~판교 복선전철 제6공구 건설공사(추가작업구)","company":"현대건설(주)","address":"경기도 안양시 만안구 안양동 1223-1도","start":"2022-06-01","end":"2027-04-30","status":"진행중"},"geometry":{"type":"Point","coordinates":[126.918421,37.402402]}},{"type":"Feature","properties":{"id":"SUB-20180157","date":"2018-06-07","sigungu":"안양시 동안구","dong":"호계동","jibun":"1022-5","pnu":null,"reason":"하수관 손상","detail":"하수관 접합부위 파손에 따른 토사 유실","size":"폭 1.00m · 연장 1.00m · 깊이 1.00m","death":0,"injury":0,"vehicle":0,"restore":"복구완료","restoreMethod":"하수관 접합부위 보수 후 포장 복구 완료","restoreDate":"20180608","matched":"geocoder","kind":"subsidence"},"geometry":{"type":"Point","coordinates":[126.959853,37.372311]}},{"type":"Feature","properties":{"id":"SUB-20180192","date":"2018-06-28","sigungu":"안양시 동안구","dong":"호계동","jibun":"1014-1","pnu":null,"reason":"","detail":"하수관 접합부위 파손에 따른 토사 유실","size":"폭 1.00m · 연장 1.00m · 깊이 1.00m","death":0,"injury":0,"vehicle":0,"restore":"복구완료","restoreMethod":"하수관 접합부위 보수 후 포장 복구 완료","restoreDate":"20180629","matched":"geocoder","kind":"subsidence"},"geometry":{"type":"Point","coordinates":[126.945498,37.386553]}},{"type":"Feature","properties":{"id":"SUB-20190157","date":"2019-07-01","sigungu":"안양시 만안구","dong":"석수동","jibun":"241-43","pnu":"4117110200102410043","reason":"하수관 손상","detail":"맨홀 접합부 파손","size":"폭 2.00m · 연장 2.00m · 깊이 2.00m","death":0,"injury":0,"vehicle":0,"restore":"복구완료","restoreMethod":"긴급보수공사 실시","restoreDate":"20190703","matched":"pnu","kind":"subsidence"},"geometry":{"type":"Point","coordinates":[126.92928,37.421077]}},{"type":"Feature","properties":{"id":"SUB-20190174","date":"2019-11-04","sigungu":"안양시 만안구","dong":"안양동","jibun":"192-5","pnu":"4117110100101920005","reason":"하수관 손상","detail":"하수관로 연결부위 파손","size":"폭 2.00m · 연장 2.00m · 깊이 2.00m","death":0,"injury":0,"vehicle":0,"restore":"복구완료","restoreMethod":"긴급보수공사 실시","restoreDate":"20191106","matched":"pnu","kind":"subsidence"},"geometry":{"type":"Point","coordinates":[126.936705,37.391542]}},{"type":"Feature","properties":{"id":"SUB-20220057","date":"2022-07-01","sigungu":"안양시 만안구","dong":"석수동","jibun":"201-7","pnu":null,"reason":"다짐(되메우기) 불량","detail":"지하보도 상부의 도로부 침하","size":"폭 1.00m · 연장 1.00m · 깊이 0.20m","death":0,"injury":0,"vehicle":1,"restore":"복구완료","restoreMethod":"긴급보수공사 실시 및 차량보상","restoreDate":"20220701","matched":"geocoder","kind":"subsidence"},"geometry":{"type":"Point","coordinates":[126.914958,37.416379]}},{"type":"Feature","properties":{"id":"SUB-20220140","date":"2022-08-10","sigungu":"안양시 만안구","dong":"석수동","jibun":"433-8","pnu":null,"reason":"다짐(되메우기) 불량","detail":"토사 유실","size":"폭 1.00m · 연장 3.00m · 깊이 1.50m","death":0,"injury":0,"vehicle":1,"restore":"복구완료","restoreMethod":"포장 복구 완료","restoreDate":"20220830","matched":"geocoder","kind":"subsidence"},"geometry":{"type":"Point","coordinates":[126.899707,37.432148]}}]}