{"type":"FeatureCollection","name":"slopes_47","note":"시 발표(2026.7.2) 59곳과 12곳 차이 — 사유지 제외 가능성. 같은 필지에 여러 지구가 있으면 names에 모아 둠","features":[{"type":"Feature","properties":{"pnu":"4117110100200820002","names":["안양9동 병목안시민공원"],"n":1,"dong":"안양동","sgg":"만안구","san":true,"jibun":"산 82-2","addr":"경기도 안양시 만안구 안양동 산 82-2","jimok":null,"lon":126.908408,"lat":37.3848,"source":"행정안전부 급경사지 현황(공공데이터포털 15083292, 기준 2026-06) + 브이월드 연속지적도(LP_PA_CBND_BUBUN)","asof":"2026-06-30"},"geometry":{"type":"MultiPolygon","coordinates":[[[[126.90995907434558,37.38452141659623],[126.90993797536048,37.384387446185045],[126.90883011767964,37.38426328812907],[126.9082832055406,37.38460894759278],[126.90820982762733,37.38467730388268],[126.90822170448251,37.38469700946463],[126.90826711834092,37.38472490469771],[126.90823009585607,37.38477762098644],[126.90820957483838,37.38479931027728],[126.90814156303232,37.38484713659859],[126.90810868379668,37.384882133132336],[126.90806155414914,37.38490837854119],[126.90801874746207,37.38492687861019],[126.90795938074011,37.38492340780303],[126.90793476739377,37.384912504056054],[126.90786656099328,37.384953148965906],[126.90781860514493,37.384998981713096],[126.90776343440493,37.38515326402589],[126.90785809092127,37.38515401478329],[126.90892107145751,37.38516242030395],[126.90995907434558,37.38452141659623]]]]}},{"type":"Feature","properties":{"pnu":"4117110100103490047","names":["만안 안양 N9지구"],"n":1,"dong":"안양동","sgg":"만안구","san":false,"jibun":"349-47","addr":"경기도 안양시 만안구 안양동 349-47","jimok":null,"lon":126.934389,"lat":37.381524,"source":"행정안전부 급경사지 현황(공공데이터포털 15083292, 기준 2026-06) + 브이월드 연속지적도(LP_PA_CBND_BUBUN)","asof":"2026-06-30"},"geometry":{"type":"MultiPolygon","coordinates":[[[[126.93334666466554,37.38123020781525],[126.93357054744307,37.3818759151562],[126.93431207270312,37.3820860954988],[126.9346826802772,37.38192232045304],[126.93502900187659,37.381768198501135],[126.93499031725,37.38171859379727],[126.9347485537999,37.381819110149856],[126.93468992707025,37.38164472128894],[126.93466633313983,37.38163975236392],[126.93449541871652,37.38160334466493],[126.93449844065712,37.38150639697192],[126.93451541626722,37.38095480408732],[126.93455046014883,37.38090770075082],[126.93439280331512,37.380946985822625],[126.93334666466554,37.38123020781525]]]]}},{"type":"Feature","properties":{"pnu":"4117110100114220000","names":["만안 안양 N6지구"],"n":1,"dong":"안양동","sgg":"만안구","san":false,"jibun":"1422","addr":"경기도 안양시 만안구 안양동 1422","jimok":null,"lon":126.924425,"lat":37.388433,"source":"행정안전부 급경사지 현황(공공데이터포털 15083292, 기준 2026-06) + 브이월드 연속지적도(LP_PA_CBND_BUBUN)","asof":"2026-06-30"},"geometry":{"type":"MultiPolygon","coordinates":[[[[126.92447811014715,37.38887679705784],[126.92456039074668,37.3889262172699],[126.92457437315596,37.38893461482242],[126.92461574297614,37.38889496100238],[126.92464469053397,37.38886720151015],[126.92468661413734,37.38882701642561],[126.92468430097685,37.38882532101355],[126.92468427841095,37.38882530297859],[126.92467316372574,37.38881738484051],[126.92467340089746,37.38881734895397],[126.92467329934175,37.388817276806726],[126.92469922989014,37.38881357245734],[126.92472788080472,37.388777667570544],[126.9247257597414,37.38875369917795],[126.92466689482671,37.38867527258366],[126.92462305680841,37.38863298645701],[126.92445054035274,37.38846305073901],[126.92445052917131,37.38846294260987],[126.92466662281423,37.388277942520645],[126.92465896612065,37.38825647535138],[126.9246589662126,37.38825638524986],[126.92466680944631,37.38824997511479],[126.92467669837,37.388241773287035],[126.92474101598613,37.38818832175447],[126.92456398093593,37.388164509985565],[126.92442762436156,37.38811432471265],[126.92430754077445,37.38805216639749],[126.9241330967253,37.38792491906831],[126.92409609933766,37.387885610568794],[126.9239537234928,37.38776009588947],[126.9238779040893,37.3876992275775],[126.92394536018729,37.3877671183274],[126.92398393367775,37.3878109329868],[126.92402835373805,37.387879349193994],[126.92409441701672,37.38798427069119],[126.92413476261362,37.388061964651115],[126.92410963633418,37.38811835179273],[126.92416902050358,37.38823993766283],[126.92415546559704,37.3882442536726],[126.92420199807074,37.388345287959154],[126.92423351811624,37.38844054591651],[126.92423421312805,37.38853353118646],[126.92429495278634,37.38865520797231],[126.9243761639859,37.38874509222754],[126.92438326602823,37.38875681006262],[126.92441811369004,37.38880080234651],[126.92447811014715,37.38887679705784]]]]}},{"type":"Feature","properties":{"pnu":"4117110100200570019","names":["만안 안양 N11지구"],"n":1,"dong":"안양동","sgg":"만안구","san":true,"jibun":"산 57-19","addr":"경기도 안양시 만안구 안양동 산 57-19","jimok":null,"lon":126.906313,"lat":37.391175,"source":"행정안전부 급경사지 현황(공공데이터포털 15083292, 기준 2026-06) + 브이월드 연속지적도(LP_PA_CBND_BUBUN)","asof":"2026-06-30"},"geometry":{"type":"MultiPolygon","coordinates":[[[[126.90589458573784,37.3914037617038],[126.90591161855573,37.391214111794966],[126.90643381956092,37.39123959001726],[126.90653849612335,37.39124354849378],[126.90655389931777,37.391243380659965],[126.90658467287413,37.391242216026065],[126.90660770031002,37.39124062169098],[126.90664588533033,37.39123661578092],[126.90666106507969,37.391234537601825],[126.90669125618713,37.391229588209555],[126.90671368866569,37.39122517319944],[126.90673223617196,37.391221034386184],[126.90675063738409,37.39121648999597],[126.90677971450097,37.39120837712535],[126.90680123521196,37.39120162773907],[126.90683428052547,37.39118990496225],[126.90692382752266,37.3913627012168],[126.90694637763345,37.391327588672105],[126.90693795479491,37.39115568627162],[126.90700910943868,37.391128199120985],[126.90694541180565,37.391026666866175],[126.90679763585126,37.39100180672835],[126.90667694012438,37.39103010999903],[126.90658346810068,37.391078212284754],[126.90643919139094,37.39109920716875],[126.9062140376528,37.391084618713755],[126.90598755208087,37.39108736428568],[126.90584562292543,37.39108256427822],[126.90583053534488,37.39108320981318],[126.90581844953508,37.39108545257205],[126.90580694906625,37.39108916445802],[126.90579633893773,37.39109426462682],[126.9057825946054,37.39110422773932],[126.90577523309757,37.39111216873353],[126.90576953053991,37.391120930994155],[126.90576560013265,37.39113029836937],[126.90576349823563,37.39114035199645],[126.90576342963824,37.39114989369112],[126.90576510035858,37.39115922055037],[126.90577827485211,37.39120665164202],[126.9058422680422,37.3911455695525],[126.90587270893914,37.39125513058285],[126.90589458573784,37.3914037617038]]]]}},{"type":"Feature","properties":{"pnu":"4117110100200830007","names":["만안 안양 N7지구"],"n":1,"dong":"안양동","sgg":"만안구","san":true,"jibun":"산 83-7","addr":"경기도 안양시 만안구 안양동 산 83-7","jimok":null,"lon":126.909772,"lat":37.391728,"source":"행정안전부 급경사지 현황(공공데이터포털 15083292, 기준 2026-06) + 브이월드 연속지적도(LP_PA_CBND_BUBUN)","asof":"2026-06-30"},"geometry":{"type":"MultiPolygon","coordinates":[[[[126.90961980458847,37.39205733800049],[126.90982015811626,37.39174237251423],[126.91002686396607,37.39144903594767],[126.91007017907728,37.391302807663386],[126.91001208599326,37.391269235956514],[126.90998804798251,37.391424065815],[126.90975828703917,37.39176935497827],[126.90969380454864,37.3917523207966],[126.90967645075501,37.39177770693609],[126.90964390366699,37.39182548951551],[126.90962916635391,37.39187214163535],[126.90963641980544,37.39191545906379],[126.90961883654182,37.391980768991786],[126.90961980458847,37.39205733800049]]]]}},{"type":"Feature","properties":{"pnu":"4117110100200440001","names":["안양3동 서초교진입로"],"n":1,"dong":"안양동","sgg":"만안구","san":true,"jibun":"산 44-1","addr":"경기도 안양시 만안구 안양동 산 44-1","jimok":null,"lon":126.91243,"lat":37.395479,"source":"행정안전부 급경사지 현황(공공데이터포털 15083292, 기준 2026-06) + 브이월드 연속지적도(LP_PA_CBND_BUBUN)","asof":"2026-06-30"},"geometry":{"type":"MultiPolygon","coordinates":[[[[126.91156356006584,37.396197012775325],[126.91218011552951,37.39633948001185],[126.91219065972541,37.396333099784826],[126.9129018151609,37.3953296614288],[126.91289142144205,37.3953139129162],[126.91285137165465,37.39524092774842],[126.91283264240103,37.39521664938298],[126.91281020883416,37.39519253041858],[126.91273768355441,37.39514547907644],[126.91276033926648,37.39512482680788],[126.91273805298748,37.395138649663416],[126.91270704190343,37.395119714083606],[126.91255977255975,37.39504954951538],[126.91238568602138,37.395033596622135],[126.91219171254929,37.3951603221304],[126.91207913197694,37.395464230335456],[126.91178975894309,37.39602117145025],[126.91156356006584,37.396197012775325]]]]}},{"type":"Feature","properties":{"pnu":"4117110100201030120","names":["만안 안양 N5지구"],"n":1,"dong":"안양동","sgg":"만안구","san":true,"jibun":"산 103-120","addr":"경기도 안양시 만안구 안양동 산 103-120","jimok":null,"lon":126.923178,"lat":37.389763,"source":"행정안전부 급경사지 현황(공공데이터포털 15083292, 기준 2026-06) + 브이월드 연속지적도(LP_PA_CBND_BUBUN)","asof":"2026-06-30"},"geometry":{"type":"MultiPolygon","coordinates":[[[[126.9221857516282,37.390029059010814],[126.92216319780053,37.39005338030623],[126.92215807654686,37.390058909104525],[126.92232535782233,37.39010503608992],[126.92249368912191,37.390151514936],[126.92265503143007,37.390175697761514],[126.92284173205537,37.39020410498044],[126.92292109282296,37.390216744931806],[126.92302778714549,37.3902236094442],[126.92311992045856,37.39020291115863],[126.92319682806155,37.39018564459808],[126.92335826377591,37.390141889965406],[126.92342969708666,37.390122105802355],[126.9236124164712,37.39008039215755],[126.92380260290878,37.390068569818204],[126.9237031578325,37.39005134008715],[126.92356403648185,37.38995300174986],[126.92336663411513,37.38999784115316],[126.92317638135412,37.39004095501304],[126.92311097484512,37.38991210250514],[126.92321186122419,37.389867830375145],[126.92337800083142,37.38979557970855],[126.92351534277294,37.38973618532898],[126.92368955385781,37.389829663319475],[126.92386105599368,37.38992239143056],[126.9238756780548,37.38980336788035],[126.92399376256806,37.38980240917413],[126.92399215876881,37.38968205047731],[126.9239801661634,37.3896383884158],[126.92394355724375,37.3894843358113],[126.923930229132,37.38944366423878],[126.92391618981065,37.3894137683434],[126.92391232351312,37.38940703522064],[126.92387026747154,37.38933402536016],[126.92366069875965,37.38915572978499],[126.92351787448366,37.38903635923823],[126.92333836059716,37.38888612250627],[126.92328509731567,37.38884089234398],[126.92328189317435,37.388838169157374],[126.92326031029691,37.38881988228204],[126.92287770947101,37.38907966159956],[126.92360005193348,37.38965425776942],[126.92273633681125,37.389873064831015],[126.92212006528582,37.389621044151205],[126.92201393750013,37.38972019267981],[126.92211561634645,37.38980288410382],[126.92224764367967,37.38991221178013],[126.92221678487053,37.389995066491295],[126.9221857516282,37.390029059010814]]]]}},{"type":"Feature","properties":{"pnu":"4117110100110340077","names":["만안 안양 N13지구"],"n":1,"dong":"안양동","sgg":"만안구","san":false,"jibun":"1034-77","addr":"경기도 안양시 만안구 안양동 1034-77","jimok":null,"lon":126.906994,"lat":37.390575,"source":"행정안전부 급경사지 현황(공공데이터포털 15083292, 기준 2026-06) + 브이월드 연속지적도(LP_PA_CBND_BUBUN)","asof":"2026-06-30"},"geometry":{"type":"MultiPolygon","coordinates":[[[[126.90525848309515,37.39135509543192],[126.90525071641187,37.39150322499957],[126.90525951211123,37.39150416020434],[126.90528649763455,37.39150702937271],[126.90530788332785,37.39150890286298],[126.9053202811523,37.39150999416611],[126.90542470590296,37.39148145381002],[126.90549444563491,37.39148382606276],[126.90555245013866,37.39150570473904],[126.90558959161031,37.39151434857517],[126.90559379119476,37.391515325077734],[126.90600044830336,37.39153226892996],[126.9064420728374,37.3915538076462],[126.90644278433592,37.391553754157265],[126.90651418312343,37.39154800899661],[126.90660644559222,37.39155514703344],[126.9066862761887,37.39156131995452],[126.9067427138291,37.39155438232861],[126.90677443017653,37.391548938579405],[126.90684633823491,37.39153330949077],[126.9069035323681,37.391517443334195],[126.90693283702036,37.3915080691873],[126.90698534867356,37.39148904569333],[126.90703187486251,37.39147033274945],[126.90743397926599,37.39123575867822],[126.90743409226972,37.39123569569704],[126.90743870298604,37.39123299631951],[126.90753623964896,37.39117609367107],[126.90756980306453,37.391183454600935],[126.90757864267788,37.391185389794934],[126.90767882622701,37.39115196958532],[126.9076878987477,37.39113011815624],[126.90776285739744,37.39094947901277],[126.90776671420505,37.39094459856791],[126.90776401981887,37.39094097435102],[126.90784478439546,37.3908222755366],[126.90785550939557,37.39082454557894],[126.90788367034285,37.39078108488442],[126.90790887161238,37.39073845077433],[126.90793686242303,37.39068645731774],[126.9079541608881,37.39065134042087],[126.90797802021662,37.39059805523341],[126.90799254169748,37.39056214324058],[126.90801522793583,37.39049865762453],[126.90803685374347,37.390425196926415],[126.90804801165176,37.39037888455086],[126.90806059330713,37.39031363395799],[126.9080673817037,37.39026678652777],[126.90807275367486,37.3902147661499],[126.90810170779596,37.38985937452238],[126.90810559556226,37.38981127238384],[126.9081118111993,37.38973451979488],[126.9081125972479,37.38971986990589],[126.90811484053553,37.38967747890454],[126.90811554184819,37.38964010534076],[126.90811552048949,37.3896027041755],[126.90811470835295,37.38957466393539],[126.90811330324956,37.3895421722108],[126.90811106299114,37.38950930139996],[126.90810668296419,37.38946268841399],[126.9080987743211,37.38940226007411],[126.90809349592999,37.38936981934974],[126.90808659709958,37.38933283622708],[126.90807491958394,37.38927933371553],[126.90805925447766,37.38921790812562],[126.90800405976141,37.38900750441832],[126.90799459433028,37.388964131058955],[126.90799046089752,37.388937259508694],[126.90798715096632,37.38891105536085],[126.90798494301164,37.38888860030875],[126.90798322065395,37.388866118610096],[126.90798189915192,37.38883910512041],[126.90798133509686,37.38881138943756],[126.90798146402344,37.38879850501781],[126.90798154554301,37.38878742259156],[126.9079780630465,37.38878196869349],[126.90796453659327,37.38876255913073],[126.90791900426157,37.38879177006847],[126.90788829933388,37.38879305223701],[126.90781528050307,37.38879613895239],[126.90781275325219,37.38879437996983],[126.90781199885642,37.388810777854246],[126.907813320456,37.388855811655915],[126.90781581641666,37.38889179118199],[126.90782460278989,37.3889635279855],[126.90783455242281,37.38901699311524],[126.9078449877741,37.389061268270645],[126.90790218309031,37.38927891779765],[126.90791395580514,37.38932841088294],[126.90792263148552,37.38937121598136],[126.90792995191845,37.38941417317905],[126.9079337026963,37.38944001726895],[126.90793975869676,37.38949183044637],[126.90794384970953,37.38954375920034],[126.90794615697213,37.38960443540181],[126.90794617084543,37.389647792272704],[126.90794440107243,37.38969980648977],[126.90794100976682,37.38974815229082],[126.90793262709059,37.38985114973277],[126.90791798328537,37.39003097179357],[126.90790496777969,37.39019080160672],[126.90788918422902,37.39030631729177],[126.90787088985192,37.39037954633831],[126.90786501107598,37.39040312125252],[126.90785377439174,37.39044004496923],[126.90783678891597,37.39049588545124],[126.90778174532264,37.39060830655923],[126.9076865899474,37.39077581993227],[126.9076756638758,37.39078992116124],[126.90762198222376,37.39086026586065],[126.90753213120074,37.39095735996778],[126.90743194437525,37.391047778270675],[126.9073222243484,37.39113084562128],[126.90720378500428,37.39120590490139],[126.9070377663359,37.39130192872383],[126.90692382752266,37.3913627012168],[126.90688002545271,37.391379361984],[126.90684387290922,37.39139244281861],[126.90679867691314,37.3914040297247],[126.90675957157644,37.39141244091038],[126.90671320547813,37.39142057595844],[126.90666727099432,37.39142672009111],[126.90660552798846,37.39143204060662],[126.90654437637929,37.3914340368191],[126.9064796266703,37.39143268734263],[126.90589458573784,37.3914037617038],[126.90575968844469,37.391374522739056],[126.90573047759112,37.39137222852593],[126.90570807625298,37.39136984071064],[126.90568581112608,37.39136690338228],[126.90566363702928,37.39136342551445],[126.90565261798913,37.39136148841077],[126.90563068207102,37.391357199816234],[126.90561977647421,37.391354857344695],[126.90559810129788,37.39134977606224],[126.90555381548994,37.39133818912255],[126.90554301188693,37.391335567412],[126.90553216296532,37.391333062795646],[126.90552126871356,37.39133068428361],[126.90551034044705,37.39132841386474],[126.90549937813138,37.39132627856953],[126.90547734013997,37.39132235026969],[126.9054662644527,37.39132056627525],[126.90545516602002,37.39131890840336],[126.90544403354932,37.391317376644906],[126.9054328896371,37.39131596200806],[126.9054217116868,37.39131467348465],[126.90541051099082,37.39131351108377],[126.90539929886465,37.391312456794395],[126.90539068338288,37.39131190017284],[126.90537939103619,37.39131176485173],[126.90536813172713,37.39131228729745],[126.90535693930984,37.391313485557816],[126.90534588156217,37.39131534166764],[126.90533502627339,37.39131782865169],[126.9053244411753,37.39132096458535],[126.90531416020269,37.39132470444552],[126.90530428497654,37.39132905732524],[126.90529481556568,37.39133396916361],[126.90527711750005,37.39134490209632],[126.90526792996053,37.391350156547624],[126.90525848309515,37.39135509543192]]]]}},{"type":"Feature","properties":{"pnu":"4117110100105870069","names":["만안 안양 N14지구","만안 안양 N15지구"],"n":2,"dong":"안양동","sgg":"만안구","san":false,"jibun":"587-69","addr":"경기도 안양시 만안구 안양동 587-69","jimok":null,"lon":126.922853,"lat":37.385705,"source":"행정안전부 급경사지 현황(공공데이터포털 15083292, 기준 2026-06) + 브이월드 연속지적도(LP_PA_CBND_BUBUN)","asof":"2026-06-30"},"geometry":{"type":"MultiPolygon","coordinates":[[[[126.92161288300292,37.38482297345708],[126.92166343968745,37.38481879985586],[126.9222610515143,37.384769519793544],[126.9223806070975,37.38479028717999],[126.92253019149345,37.384795973471675],[126.92259679174518,37.38481492125052],[126.9226430803928,37.38484287462058],[126.9226814555961,37.38486901165536],[126.9227074035294,37.384901438500854],[126.92275695076599,37.38502032455084],[126.92290971007898,37.38534910786001],[126.92320260895794,37.38594113458129],[126.92333701518392,37.38652756867249],[126.92338580904958,37.38675420642378],[126.92338955620664,37.38677764432308],[126.9234029805556,37.38681189179476],[126.92341908412436,37.38685409700433],[126.92348234618312,37.38693634745135],[126.92352179647798,37.38700512098576],[126.92352693904854,37.387044129354294],[126.92351085514113,37.38708095227608],[126.92365058541098,37.387284115305825],[126.92367888753728,37.38733430249739],[126.92367345871304,37.387004094633454],[126.92349485651526,37.38657771532877],[126.92323705590974,37.38578211003142],[126.92301812503338,37.38525856467225],[126.92291474344144,37.38503796329642],[126.92277824535232,37.384751601637056],[126.922559592607,37.38463639609878],[126.92218900403887,37.38460508108153],[126.92163163355497,37.38466774102914],[126.92164223578781,37.384678866729935],[126.92161288300292,37.38482297345708]]]]}},{"type":"Feature","properties":{"pnu":"4117110100106180390","names":["만안 안양 N16지구"],"n":1,"dong":"안양동","sgg":"만안구","san":false,"jibun":"618-390","addr":"경기도 안양시 만안구 안양동 618-390","jimok":null,"lon":126.921557,"lat":37.389974,"source":"행정안전부 급경사지 현황(공공데이터포털 15083292, 기준 2026-06) + 브이월드 연속지적도(LP_PA_CBND_BUBUN)","asof":"2026-06-30"},"geometry":{"type":"MultiPolygon","coordinates":[[[[126.91861552067033,37.38973459120594],[126.91861751738261,37.3897466842326],[126.9187869758638,37.38975110073584],[126.91880831826896,37.3897511156632],[126.91882311115292,37.38975112600738],[126.91886182107159,37.38975116207742],[126.91903738687465,37.38975724936854],[126.91921273817299,37.38976331822943],[126.91931517827301,37.389766561048646],[126.9193544739731,37.38976790383697],[126.91935996850017,37.38976196996227],[126.91963481422009,37.38976985524093],[126.9197460254172,37.389775896907075],[126.9197548340819,37.38977527228631],[126.9198290169342,37.38978218027514],[126.91989619926792,37.38978845267559],[126.91995784888135,37.389794270714845],[126.9200969561689,37.38980699879939],[126.9201601847864,37.389814619851066],[126.92029261479698,37.389830685879154],[126.92060773542867,37.3898748173701],[126.920876556344,37.38990990630688],[126.92087843572456,37.38992645924148],[126.9209172073263,37.38993225216937],[126.92093978954625,37.389934502075256],[126.92110339696954,37.38995155251915],[126.92124958233305,37.389966806903296],[126.92140248568542,37.38998300271369],[126.92149284647284,37.38999397518594],[126.9215666749045,37.39000534187118],[126.92159606234955,37.390011443587746],[126.92174417072593,37.390045088384326],[126.92176557535835,37.390050400790585],[126.92178245295491,37.39005459288187],[126.92189667644004,37.39008516920573],[126.92199597476015,37.39011269896286],[126.92208640016105,37.39013758270254],[126.92215648196195,37.39015757823053],[126.92221489778392,37.3902107052409],[126.92220220500751,37.390243025161105],[126.92226893335433,37.390262784109126],[126.9222836337357,37.39022202301279],[126.92233753170662,37.39020097534943],[126.92244550659858,37.39023570965014],[126.92260529453203,37.39025626041202],[126.92279193155952,37.390280865382],[126.92297177163805,37.39030457353832],[126.92298867327811,37.39030748603147],[126.92304786302904,37.39030130831181],[126.92314934978822,37.39028831088044],[126.92322210426413,37.39026875297264],[126.92335179804967,37.390235176825826],[126.92343983388487,37.39021281771455],[126.92354110775814,37.390187124499285],[126.92355530829619,37.390224904426184],[126.92377699399131,37.39018684729994],[126.92376194575375,37.39014971557314],[126.92377324929213,37.390149813105616],[126.92384777156417,37.39014586156111],[126.92399364469603,37.39011431360819],[126.92401884334568,37.39010903215232],[126.92410879054742,37.3900944405477],[126.92415153154279,37.390116912808345],[126.9241829258076,37.39008241544049],[126.9242149531353,37.390047215685854],[126.92421910990541,37.39003505469458],[126.92422579026291,37.390017633422296],[126.92417704168277,37.390028242545974],[126.92414010749708,37.39003629148578],[126.92396407731813,37.390074370230685],[126.92395023600203,37.39008233513998],[126.92386879228128,37.39009657180109],[126.92383543331303,37.390097928448355],[126.92364326676415,37.39010258646416],[126.92350733823949,37.390137825697735],[126.92337958026576,37.39015610405339],[126.92324284624713,37.39018386402265],[126.92313225256424,37.390202090398496],[126.92311992045856,37.39020291115863],[126.92302778714549,37.3902236094442],[126.92292109282296,37.390216744931806],[126.92284173205537,37.39020410498044],[126.92265503143007,37.390175697761514],[126.92249368912191,37.390151514936],[126.92232535782233,37.39010503608992],[126.92215807654686,37.390058909104525],[126.92198130405282,37.39000764872208],[126.92181909152612,37.389963344716435],[126.9217210826585,37.3899447087024],[126.92157751795078,37.38991797773593],[126.92148082317051,37.38990614507735],[126.92138234511961,37.38989348219729],[126.92137240924792,37.38989220503288],[126.92120324349652,37.38987757491808],[126.9210424602093,37.38985966155904],[126.9208931038048,37.38984268381757],[126.92087070261854,37.389840127681],[126.9207593659125,37.389824590284086],[126.92059408380753,37.389800546338435],[126.92042805412122,37.389778727157285],[126.9203839186862,37.38977303851129],[126.92031540661498,37.389764188570766],[126.92015822528967,37.38974695224404],[126.9200662383713,37.38973647319042],[126.91996025082484,37.38972435357342],[126.91987235063127,37.389714922365],[126.91969599975363,37.38970390721581],[126.91957286587325,37.38969616333331],[126.9194412854113,37.38968840445103],[126.91942791684855,37.38968703463949],[126.9194163654867,37.38968644997131],[126.91921644438565,37.389678526245774],[126.91914496727247,37.389675791458686],[126.91894949410717,37.38966903268961],[126.91879847663344,37.389664115739805],[126.91871695100971,37.38965994105095],[126.91861552067033,37.38973459120594]]]]}},{"type":"Feature","properties":{"pnu":"4117110100107230023","names":["만안 안양 N19지구"],"n":1,"dong":"안양동","sgg":"만안구","san":false,"jibun":"723-23","addr":"경기도 안양시 만안구 안양동 723-23","jimok":null,"lon":126.915152,"lat":37.390989,"source":"행정안전부 급경사지 현황(공공데이터포털 15083292, 기준 2026-06) + 브이월드 연속지적도(LP_PA_CBND_BUBUN)","asof":"2026-06-30"},"geometry":{"type":"MultiPolygon","coordinates":[[[[126.91421541363835,37.392442786999354],[126.91422061333412,37.392360510148414],[126.91428125817485,37.39224082802298],[126.91432727312511,37.392126090661776],[126.91433307133784,37.392063186066125],[126.9143450867246,37.391887605108295],[126.91434502902104,37.39184966332092],[126.91435444187896,37.39180535833688],[126.91438113803166,37.39176593156853],[126.91449154683532,37.39160860552533],[126.91458075778002,37.391442623058886],[126.9146982315175,37.391288149214624],[126.91481055775523,37.3911316261711],[126.91491867344824,37.390973351963936],[126.91501653998812,37.39081086241643],[126.91503201453492,37.39078780774325],[126.91505059274147,37.390766278052894],[126.91507213884884,37.39074648948835],[126.91509620072489,37.39072882014403],[126.9152849994975,37.39063956822942],[126.91548822879447,37.390560832347845],[126.91553885292396,37.39054082157144],[126.91558947703683,37.390520801763145],[126.91563597506588,37.39049467906339],[126.91565708106333,37.39048433271196],[126.91566269245492,37.390485147699394],[126.91566828111807,37.39048608881216],[126.91567382444748,37.39048717405423],[126.91567933374579,37.39048839442361],[126.91568946068594,37.39049044707797],[126.91569980302413,37.39049176105528],[126.91571023659509,37.39049229121451],[126.91572068231075,37.39049207353892],[126.9157404882459,37.39049288980901],[126.9157602068184,37.39049109306806],[126.91577927333512,37.39048674597783],[126.91579717953414,37.39047993827175],[126.91581343959542,37.390470885842],[126.91582763543332,37.39045982265025],[126.91583926291975,37.3904432073419],[126.91584765092368,37.39042532826441],[126.91585255045099,37.3904066807965],[126.91585388202694,37.39038764330745],[126.9158516112543,37.39036867529026],[126.91584764385986,37.39035213878541],[126.91584224203949,37.390335862535714],[126.91583543957884,37.39031992765677],[126.91582725898154,37.390304406245995],[126.91581945726172,37.39029333612483],[126.91488344555326,37.390625849635],[126.9149444619246,37.39065232109316],[126.91448167702407,37.39138402024006],[126.91420756915235,37.3918161703022],[126.9142030690158,37.39183080847498],[126.91419339105644,37.39186019244132],[126.91418472714503,37.39187207043269],[126.91412107477146,37.39239391835007],[126.91421541363835,37.392442786999354]]]]}},{"type":"Feature","properties":{"pnu":"4117110100107280000","names":["만안 안양 N20지구"],"n":1,"dong":"안양동","sgg":"만안구","san":false,"jibun":"728","addr":"경기도 안양시 만안구 안양동 728","jimok":null,"lon":126.914991,"lat":37.388653,"source":"행정안전부 급경사지 현황(공공데이터포털 15083292, 기준 2026-06) + 브이월드 연속지적도(LP_PA_CBND_BUBUN)","asof":"2026-06-30"},"geometry":{"type":"MultiPolygon","coordinates":[[[[126.91579797351018,37.38812599986639],[126.91577535119492,37.3878620669652],[126.91468392996227,37.38789489659315],[126.91471280329363,37.387914776173986],[126.91471909395086,37.3879334948866],[126.91477229429132,37.38799892963608],[126.91479886622338,37.38802678149628],[126.91481867111045,37.3880573584674],[126.91483411847021,37.38809671714407],[126.91488216074268,37.3881308107375],[126.91491769670345,37.38822908350899],[126.91491510753093,37.38829085524495],[126.91493699353384,37.38842662729206],[126.91492219130646,37.38852334047982],[126.91489596476245,37.38858769883808],[126.91489262188584,37.388637135114536],[126.91491712360077,37.388697944578496],[126.91492809575682,37.38871106238856],[126.91493002318411,37.38873376939188],[126.91492240492389,37.38878926637247],[126.91493236994535,37.38884353282461],[126.9149361606726,37.38889562330812],[126.91492749136106,37.38894205530184],[126.91491277938839,37.388979833120864],[126.9148914568149,37.38901184860689],[126.91483115651184,37.38907077589013],[126.91474901113598,37.389154401972405],[126.91472512620629,37.38918546948129],[126.91471215022493,37.389215932301894],[126.9147194625812,37.38939659127081],[126.9147154869965,37.38942660117788],[126.9149881147029,37.38941745742501],[126.91526014752057,37.389405114004894],[126.91557636504324,37.38939427072954],[126.91604242384743,37.38937923715254],[126.91579797351018,37.38812599986639]]]]}},{"type":"Feature","properties":{"pnu":"4117110100110900002","names":["만안 안양 N1지구"],"n":1,"dong":"안양동","sgg":"만안구","san":false,"jibun":"1090-2","addr":"경기도 안양시 만안구 안양동 1090-2","jimok":null,"lon":126.903092,"lat":37.38332,"source":"행정안전부 급경사지 현황(공공데이터포털 15083292, 기준 2026-06) + 브이월드 연속지적도(LP_PA_CBND_BUBUN)","asof":"2026-06-30"},"geometry":{"type":"MultiPolygon","coordinates":[[[[126.90307212690497,37.382544163806195],[126.90286134469272,37.38253402293518],[126.90245753358275,37.38229655591226],[126.9021148153686,37.3830902169987],[126.90224715853508,37.383160265038136],[126.90225012608829,37.38316182628704],[126.90245808758746,37.38332615680705],[126.90265800416711,37.38340933470657],[126.9029005617034,37.38348916000747],[126.90297861082004,37.383659210788],[126.90299214420648,37.383688901537795],[126.90290904060043,37.383722692472155],[126.90284410314108,37.383749101161506],[126.90301670044897,37.38380304470851],[126.9032204384695,37.383866573670346],[126.90338953756857,37.38391929739318],[126.90345936916619,37.38394107881027],[126.90351474608836,37.38380798154086],[126.90356845201329,37.38372672733384],[126.90358822493438,37.383551739318115],[126.90359128614952,37.38352472037448],[126.90365639762702,37.38345093598104],[126.90345784978727,37.3833475691284],[126.90348187996429,37.3832851305981],[126.90360050747904,37.383188865170126],[126.90364844822788,37.383086225026986],[126.90336547351298,37.38279456580162],[126.90328003424574,37.38262023829567],[126.90307212690497,37.382544163806195]]]]}},{"type":"Feature","properties":{"pnu":"4117110100110340079","names":["만안 안양 N29지구"],"n":1,"dong":"안양동","sgg":"만안구","san":false,"jibun":"1034-79","addr":"경기도 안양시 만안구 안양동 1034-79","jimok":null,"lon":126.905391,"lat":37.391327,"source":"행정안전부 급경사지 현황(공공데이터포털 15083292, 기준 2026-06) + 브이월드 연속지적도(LP_PA_CBND_BUBUN)","asof":"2026-06-30"},"geometry":{"type":"MultiPolygon","coordinates":[[[[126.90500400460118,37.391391442215294],[126.9050990765313,37.39139135757982],[126.90511432523985,37.39138839666081],[126.90525361302632,37.39135743410718],[126.90525848309515,37.39135509543192],[126.90526792996053,37.391350156547624],[126.90527711750005,37.39134490209632],[126.90529481556568,37.39133396916361],[126.90530428497654,37.39132905732524],[126.90531416020269,37.39132470444552],[126.9053244411753,37.39132096458535],[126.90533502627339,37.39131782865169],[126.90534588156217,37.39131534166764],[126.90535693930984,37.391313485557816],[126.90536813172713,37.39131228729745],[126.90537939103619,37.39131176485173],[126.90539068338288,37.39131190017284],[126.90539929886465,37.391312456794395],[126.90541051099082,37.39131351108377],[126.9054217116868,37.39131467348465],[126.9054328896371,37.39131596200806],[126.90544403354932,37.391317376644906],[126.90545516602002,37.39131890840336],[126.9054662644527,37.39132056627525],[126.90547734013997,37.39132235026969],[126.90549937813138,37.39132627856953],[126.90551034044705,37.39132841386474],[126.90552126871356,37.39133068428361],[126.90553216296532,37.391333062795646],[126.90554301188693,37.391335567412],[126.90555381548994,37.39133818912255],[126.90559810129788,37.39134977606224],[126.90561977647421,37.391354857344695],[126.90563068207102,37.391357199816234],[126.90565261798913,37.39136148841077],[126.90566363702928,37.39136342551445],[126.90568581112608,37.39136690338228],[126.90570807625298,37.39136984071064],[126.90573047759112,37.39137222852593],[126.90575968844469,37.391374522739056],[126.90589458573784,37.3914037617038],[126.90587270893914,37.39125513058285],[126.9058422680422,37.3911455695525],[126.90577827485211,37.39120665164202],[126.9055242978485,37.39119567863852],[126.90528285757613,37.39120082544186],[126.90509762273454,37.39126561072793],[126.90506917166645,37.39127850808555],[126.90505017263429,37.39129124195364],[126.90503397136625,37.39130614053735],[126.90502087318752,37.39132287071141],[126.90501111551916,37.3913412164269],[126.9050050147383,37.391361033780434],[126.90500300275812,37.39138014266852],[126.90500397118565,37.391391081781975],[126.90500400460118,37.391391442215294]]]]}},{"type":"Feature","properties":{"pnu":"4117110100112800000","names":["만안 안양 N21지구"],"n":1,"dong":"안양동","sgg":"만안구","san":false,"jibun":"1280","addr":"경기도 안양시 만안구 안양동 1280","jimok":null,"lon":126.936081,"lat":37.377335,"source":"행정안전부 급경사지 현황(공공데이터포털 15083292, 기준 2026-06) + 브이월드 연속지적도(LP_PA_CBND_BUBUN)","asof":"2026-06-30"},"geometry":{"type":"MultiPolygon","coordinates":[[[[126.93536681395814,37.37688951533803],[126.93517737895603,37.377139189311194],[126.93531905048307,37.37716530808703],[126.93596558921574,37.37769126765655],[126.93621408678143,37.37789342221278],[126.93645621101126,37.378090382875335],[126.93646321822318,37.37808218747179],[126.9364337643342,37.37806550244856],[126.93648620497662,37.37800462251995],[126.93645821810206,37.377988839326505],[126.93689921175935,37.37747892502243],[126.93670657413836,37.37737394120116],[126.93674809669155,37.37727314009351],[126.93682480561921,37.37708694176279],[126.93666677352306,37.377048201576685],[126.93621039236096,37.376945504794826],[126.93599376486888,37.37690565012205],[126.93577487835704,37.376867145323075],[126.9355247126843,37.37683447928582],[126.93532726797423,37.37680769884646],[126.93539372743504,37.376854048317014],[126.93536681395814,37.37688951533803]]]]}},{"type":"Feature","properties":{"pnu":"4117110100112800002","names":["만안 안양 N22지구"],"n":1,"dong":"안양동","sgg":"만안구","san":false,"jibun":"1280-2","addr":"경기도 안양시 만안구 안양동 1280-2","jimok":null,"lon":126.937348,"lat":37.377328,"source":"행정안전부 급경사지 현황(공공데이터포털 15083292, 기준 2026-06) + 브이월드 연속지적도(LP_PA_CBND_BUBUN)","asof":"2026-06-30"},"geometry":{"type":"MultiPolygon","coordinates":[[[[126.93674809669155,37.37727314009351],[126.93701369735388,37.3773465379479],[126.93702364279955,37.37733501034776],[126.93776793888132,37.37756499306493],[126.93797200548616,37.37764195965446],[126.93808586049816,37.377451996193095],[126.93788347993961,37.37738440128609],[126.93769893578153,37.377320149421315],[126.93748097171465,37.37725659999408],[126.93727519765227,37.377197742076625],[126.93700236623957,37.3771303776812],[126.93682480561921,37.37708694176279],[126.93674809669155,37.37727314009351]]]]}},{"type":"Feature","properties":{"pnu":"4117110100104770001","names":["만안 안양 N23지구"],"n":1,"dong":"안양동","sgg":"만안구","san":false,"jibun":"477-1","addr":"경기도 안양시 만안구 안양동 477-1","jimok":null,"lon":126.927127,"lat":37.384895,"source":"행정안전부 급경사지 현황(공공데이터포털 15083292, 기준 2026-06) + 브이월드 연속지적도(LP_PA_CBND_BUBUN)","asof":"2026-06-30"},"geometry":{"type":"MultiPolygon","coordinates":[[[[126.92678882275686,37.38500925425968],[126.92656962450809,37.385378532194856],[126.92659878797802,37.38546081344522],[126.9269385801772,37.385661954786826],[126.92705708673226,37.38571861326398],[126.92710956827383,37.38574369453993],[126.9271577654883,37.3856478567383],[126.92719079966557,37.38558453606955],[126.92723978211271,37.385493744415605],[126.92727620310993,37.385430966457875],[126.92728502550392,37.38541583492414],[126.92738738770419,37.38524020097391],[126.92756801242176,37.3849370319922],[126.92758340105047,37.38490433472374],[126.9277601642692,37.38450709691685],[126.92773637452552,37.384471041427425],[126.92750620518372,37.384405664042674],[126.92730967372152,37.38435157002295],[126.92720885058077,37.384341685644536],[126.92719981829468,37.384340778953195],[126.92714155876484,37.38433623725043],[126.92712744549769,37.38433514715511],[126.92711254191721,37.384333966459344],[126.92708543625017,37.38434016641717],[126.92705650577041,37.384364745952645],[126.92694265878329,37.38450793581596],[126.92692025637703,37.38455360321415],[126.92689423289383,37.38460710716468],[126.92697752721845,37.384644551863],[126.92694111723911,37.384696337345865],[126.92686494881015,37.384874330103926],[126.92686957852376,37.38487415282276],[126.92678882275686,37.38500925425968]]]]}},{"type":"Feature","properties":{"pnu":"4117110100200860001","names":["만안 안양 N24지구"],"n":1,"dong":"안양동","sgg":"만안구","san":true,"jibun":"산 86-1","addr":"경기도 안양시 만안구 안양동 산 86-1","jimok":null,"lon":126.911546,"lat":37.392183,"source":"행정안전부 급경사지 현황(공공데이터포털 15083292, 기준 2026-06) + 브이월드 연속지적도(LP_PA_CBND_BUBUN)","asof":"2026-06-30"},"geometry":{"type":"MultiPolygon","coordinates":[[[[126.91146779124291,37.39183689358649],[126.91117032220056,37.392372797680835],[126.91129410957934,37.39241296932783],[126.91175227831683,37.39264814950094],[126.91212078205284,37.39199219237854],[126.91146779124291,37.39183689358649]]]]}},{"type":"Feature","properties":{"pnu":"4117110100200850003","names":["만안 안양 N25지구"],"n":1,"dong":"안양동","sgg":"만안구","san":true,"jibun":"산 85-3","addr":"경기도 안양시 만안구 안양동 산 85-3","jimok":null,"lon":126.910388,"lat":37.392048,"source":"행정안전부 급경사지 현황(공공데이터포털 15083292, 기준 2026-06) + 브이월드 연속지적도(LP_PA_CBND_BUBUN)","asof":"2026-06-30"},"geometry":{"type":"MultiPolygon","coordinates":[[[[126.91061226994067,37.39177582602357],[126.91039695762113,37.391856922875576],[126.91021631853356,37.391765970252635],[126.90990936376521,37.3919698578442],[126.90974042042906,37.39202090451411],[126.90969836248395,37.392033612220985],[126.9096888728537,37.39207378111261],[126.91024545550196,37.392211373482205],[126.91040008917854,37.39223659499834],[126.91066966486937,37.39227623080135],[126.91083432796161,37.39230041427604],[126.9111493146983,37.3923659879776],[126.91077379735813,37.39218019046702],[126.91086662205515,37.39187142073254],[126.91061226994067,37.39177582602357]]]]}},{"type":"Feature","properties":{"pnu":"4117110100109730111","names":["만안 안양 N26지구"],"n":1,"dong":"안양동","sgg":"만안구","san":false,"jibun":"973-111","addr":"경기도 안양시 만안구 안양동 973-111","jimok":null,"lon":126.908431,"lat":37.394,"source":"행정안전부 급경사지 현황(공공데이터포털 15083292, 기준 2026-06) + 브이월드 연속지적도(LP_PA_CBND_BUBUN)","asof":"2026-06-30"},"geometry":{"type":"MultiPolygon","coordinates":[[[[126.90825077284931,37.3938012077177],[126.908273826764,37.393833545295145],[126.90830423072302,37.393876340432165],[126.90831202589516,37.39389210532348],[126.90833012824234,37.39392874583735],[126.90834019251085,37.39396339778302],[126.9083419361482,37.394069232344094],[126.90835889087711,37.3941024751229],[126.90837380847799,37.39412102975522],[126.90839595361088,37.39414868131506],[126.90843312383821,37.3941719207157],[126.90847412248337,37.39418595474661],[126.90851546064924,37.39419026708191],[126.90854403037568,37.39419143383434],[126.90859020810699,37.39418159500742],[126.90862385509021,37.39416816028199],[126.90866967825674,37.39411615365803],[126.90869563418896,37.39406650109286],[126.90870272123304,37.39402469056272],[126.90870281354135,37.393977297261394],[126.9085123129176,37.39392274433178],[126.90841637979003,37.39389522394027],[126.908319341839,37.39382975185969],[126.90826172905645,37.39379039517063],[126.90821870031876,37.39375622178424],[126.90825077284931,37.3938012077177]]]]}},{"type":"Feature","properties":{"pnu":"4117110100110550001","names":["만안 안양 N27지구"],"n":1,"dong":"안양동","sgg":"만안구","san":false,"jibun":"1055-1","addr":"경기도 안양시 만안구 안양동 1055-1","jimok":null,"lon":126.90571,"lat":37.385822,"source":"행정안전부 급경사지 현황(공공데이터포털 15083292, 기준 2026-06) + 브이월드 연속지적도(LP_PA_CBND_BUBUN)","asof":"2026-06-30"},"geometry":{"type":"MultiPolygon","coordinates":[[[[126.90548744026783,37.385873331980754],[126.9055162274208,37.385878581243105],[126.90554499919085,37.38589590409946],[126.9055288208276,37.385920398603695],[126.90565353893446,37.38596383862392],[126.90574162214675,37.38595769297588],[126.9057702028762,37.385947714840064],[126.90580780974528,37.38594342040227],[126.90583208358619,37.3859460529891],[126.90587779999376,37.38595789327467],[126.90594159778391,37.38595821515166],[126.9062283762428,37.386072064657014],[126.90632688830256,37.385944650232105],[126.90621788285527,37.385887347937874],[126.9062140238324,37.38588518239011],[126.90603723123169,37.38578592804522],[126.90571489710773,37.38566285891347],[126.90571318145157,37.38566232592433],[126.90560586281349,37.385628892343306],[126.90553917232184,37.38560380801897],[126.90549529138107,37.385587301829375],[126.9053956225654,37.38554981969578],[126.90538307227328,37.385545097181726],[126.90537361082977,37.38561509843248],[126.90528880135749,37.38579892681772],[126.90544390897098,37.38585702428014],[126.90548744026783,37.385873331980754]]]]}},{"type":"Feature","properties":{"pnu":"4117110100200730001","names":["만안 안양 N28지구"],"n":1,"dong":"안양동","sgg":"만안구","san":true,"jibun":"산 73-1","addr":"경기도 안양시 만안구 안양동 산 73-1","jimok":null,"lon":126.906047,"lat":37.381498,"source":"행정안전부 급경사지 현황(공공데이터포털 15083292, 기준 2026-06) + 브이월드 연속지적도(LP_PA_CBND_BUBUN)","asof":"2026-06-30"},"geometry":{"type":"MultiPolygon","coordinates":[[[[126.90473846760722,37.38428705037005],[126.90526426773668,37.38449773156356],[126.90532640332341,37.384507765373066],[126.9053691986817,37.384507313621654],[126.90603935159167,37.384505387725234],[126.90621861477227,37.3844969816585],[126.906389205154,37.38448928014754],[126.90652303755702,37.38454751226561],[126.90652816626888,37.38452773007013],[126.90658536963886,37.38450932318722],[126.90662590691892,37.384490767754095],[126.90666721598272,37.38446008524841],[126.90670093075856,37.38444343447212],[126.90672290083798,37.38443697377655],[126.90675284712107,37.38439110902073],[126.90678415138936,37.38436975298464],[126.90682229684698,37.38435851181926],[126.90688704787641,37.38433600219872],[126.90691402972148,37.384330815910104],[126.90694405242733,37.38433186707888],[126.90698575319284,37.384321791014344],[126.90702841664167,37.384291388778976],[126.90704870216399,37.38426856422286],[126.9070884120672,37.38423427622662],[126.90712686303095,37.38418639988777],[126.90716245167074,37.38417899490076],[126.9071993233749,37.38417490666582],[126.90723766228226,37.384126264337254],[126.90727762102688,37.384118574473725],[126.90729257266499,37.38410813459794],[126.90731529940479,37.38409242095811],[126.90738121757998,37.38406630793044],[126.90750641279982,37.3840153919697],[126.90753954726222,37.38401104837335],[126.90761996087201,37.383968908639886],[126.90761244386067,37.38394833247107],[126.90768016764765,37.38391378719749],[126.90769685947738,37.38392940604081],[126.90781123843554,37.38387740896617],[126.90787422313517,37.38384008469609],[126.90787768114654,37.383828716608605],[126.9079128334833,37.38382693339127],[126.90796649319763,37.38380634257367],[126.90798783194127,37.38379885398437],[126.90802587556551,37.38378740511514],[126.9080281187745,37.38376316054031],[126.90807530516787,37.38373611327961],[126.90808546327688,37.38373034579011],[126.90808545690224,37.383717281048966],[126.90809956363866,37.3836960101871],[126.9081270990495,37.38367212797019],[126.9081655951364,37.383650849325214],[126.90817314545694,37.38362642873246],[126.90820587541054,37.383602091078075],[126.90822022419262,37.38361325697929],[126.90824233950298,37.38361686947715],[126.9082533612614,37.38357927875835],[126.90828315782808,37.383552992573975],[126.90830593520772,37.38352343016125],[126.90831824134536,37.38348809298876],[126.90833409595739,37.38345945316176],[126.90834310584079,37.383414310331624],[126.90834943574772,37.383381464262385],[126.90837226816278,37.38333472850776],[126.90836549853563,37.38328490598236],[126.90835937156704,37.383263240723544],[126.90835481405811,37.3832324764353],[126.90833109794661,37.38316299840068],[126.90832214492437,37.38313483458481],[126.90831527991824,37.38309825692053],[126.90827757981721,37.38306055571156],[126.9082537224547,37.38304141733403],[126.90820633580371,37.38302089084615],[126.908282667904,37.383082256197085],[126.90828962493238,37.38309920979914],[126.90829663880444,37.383124975385705],[126.90829937187863,37.38317011846009],[126.90829679774025,37.38322462792143],[126.90829567105168,37.38324089938889],[126.90820627167676,37.383200238105694],[126.90819412500028,37.38316155689965],[126.9081763646283,37.38313354830614],[126.9081574494318,37.38310806164411],[126.90812193090117,37.38308673357527],[126.9081039894846,37.3830499669483],[126.90806346753442,37.38302978821092],[126.90805376383832,37.38299701057708],[126.90804265463686,37.38295948347508],[126.90805376210209,37.38296201509883],[126.90803853818234,37.38292827802368],[126.908021428615,37.38291274899745],[126.9079373928895,37.38288136320777],[126.90783603682526,37.382858757560975],[126.9077591379151,37.382854092433725],[126.90770865215165,37.3828380323306],[126.90766550447768,37.382822969146964],[126.90755137770249,37.382791694354026],[126.90747201922935,37.38277651222437],[126.90740217174823,37.382767374420006],[126.90739384085211,37.382792848535054],[126.90740499045053,37.38280680514153],[126.90740713185289,37.3828280257821],[126.90737839200133,37.38282189401944],[126.9073511012402,37.38281271796805],[126.90727185804312,37.38279566168172],[126.90725185743032,37.3827716516757],[126.90720710066239,37.3827702915021],[126.90713453037455,37.3827354453699],[126.90709160852353,37.38271151615524],[126.90705339574818,37.38269610529135],[126.90704825999566,37.38268570345979],[126.90702233982293,37.3826731315951],[126.90700072543385,37.38267551102833],[126.90696490797492,37.382676860955605],[126.90691592402406,37.38266995604139],[126.90688256016352,37.38265961271285],[126.90687282331281,37.382662650357375],[126.90685439535397,37.382663194240045],[126.90682685417262,37.38263775452035],[126.90681745997132,37.382628700794015],[126.90679628368108,37.38261492531582],[126.90678604643914,37.3825938783829],[126.90676647235719,37.3825720490955],[126.90672309819155,37.38255778729074],[126.90667008539243,37.38254928424645],[126.90660464533813,37.3824477322467],[126.90658359008593,37.38240966542308],[126.90657975531994,37.38238838934607],[126.90655380036644,37.38235877011844],[126.90654726288595,37.382349727674],[126.90653053696502,37.38230788905742],[126.90649824952092,37.38228578821918],[126.90649155710351,37.38227426785175],[126.90648451213855,37.382264747457285],[126.90647148184222,37.38224708607379],[126.90644670283112,37.382207277270304],[126.9064294310871,37.38216855571684],[126.90642579930493,37.38215647016561],[126.90642249365851,37.38214542104545],[126.90641466960348,37.38213591804055],[126.906410193862,37.382130499332376],[126.90639476931548,37.3821043484392],[126.90635598671659,37.3820577166678],[126.90634659858733,37.38204395960184],[126.90632559021769,37.382049393845705],[126.90628164697836,37.381985431347985],[126.90627382171705,37.38194119414488],[126.90628315183494,37.38192044223647],[126.90625109295996,37.38182494470482],[126.90623607591998,37.38178022416639],[126.90623577328357,37.381778466940304],[126.9062264683988,37.38172573195425],[126.9062311372185,37.38170345357562],[126.90605151837761,37.38164138186511],[126.906022569472,37.381631375232054],[126.90583729157437,37.38166910423425],[126.90551519013684,37.38116494968784],[126.90600994225508,37.38109121457599],[126.90601515854955,37.38106461176553],[126.90600223934146,37.38103973327299],[126.90588724414425,37.380948106067606],[126.90582280451123,37.38093197981149],[126.90577631749105,37.38086259093586],[126.9057277997368,37.38084525213207],[126.90569478891875,37.380824420917214],[126.90565918132661,37.38081236349139],[126.90559920000857,37.38077103027854],[126.90557742245868,37.3807334762593],[126.90556692826289,37.380693021105714],[126.90555860169626,37.38064389091828],[126.90553036863913,37.38062182914008],[126.90550362881271,37.380615275065374],[126.90546730629272,37.38059728831088],[126.90542743095246,37.38054977234001],[126.9054157515953,37.38050909996494],[126.9054062896325,37.38046500552657],[126.90543970804117,37.38039625806697],[126.90546395385452,37.38035747997688],[126.9054860893049,37.38034444221774],[126.90551150396834,37.38033644379996],[126.90552434775944,37.38025194785957],[126.90554699951637,37.38022356619164],[126.90553816378299,37.38018419359781],[126.90551730082473,37.380173346444344],[126.9054856514569,37.3801830787642],[126.90545106736363,37.38016554392338],[126.90539921058729,37.38016390699408],[126.90535903179764,37.380150881673885],[126.9053297193144,37.38016969810132],[126.90529581643018,37.380166931434594],[126.90529046672752,37.38015640320608],[126.90534454700783,37.38009675482717],[126.90536706956803,37.38005461456096],[126.90536729764226,37.37999093087666],[126.9053827196299,37.37996539057477],[126.90536684023587,37.37988931382506],[126.90534221582973,37.379826754224936],[126.90533482293411,37.37978052604818],[126.9053175725112,37.37967294862437],[126.90532908499915,37.379631952708614],[126.90535351323008,37.379591643055605],[126.90537113051353,37.379562212145224],[126.90536977385489,37.37952821567459],[126.90534725550563,37.379496436521535],[126.90531789934084,37.37950544984878],[126.9053092965784,37.37947831323236],[126.90528808133942,37.379460581981505],[126.90525132175466,37.37941400553499],[126.90522600292775,37.37937375451982],[126.9052121011799,37.37933183690404],[126.90516581956,37.379314923164465],[126.90508486171701,37.37927346446961],[126.90505304302289,37.3792834217916],[126.90502902305562,37.37928702428752],[126.9049932366616,37.37927417361775],[126.90497163875249,37.37926440698711],[126.90495162744948,37.37925003745127],[126.90492118458218,37.37925246335934],[126.90489172245339,37.37926490035908],[126.90479809285573,37.3792703560778],[126.90478502233957,37.37927593169416],[126.90473826243405,37.379279866928115],[126.90469686475231,37.37927568837047],[126.90467071985948,37.379281046037235],[126.90464365314953,37.379265715594265],[126.90462557101698,37.37924381508166],[126.90458939848962,37.3792678786376],[126.90456747847158,37.37927156385217],[126.90454170491128,37.379304204587704],[126.90452357238567,37.379312686309454],[126.90444798061299,37.3793480432728],[126.90443785405736,37.379364613673225],[126.9044133699203,37.37938665947954],[126.90438302333621,37.379419431577915],[126.90435979145391,37.37943348638121],[126.90434054145065,37.379459194600145],[126.90431563397358,37.379476770994145],[126.90427987511453,37.37948634644245],[126.90424181925476,37.37949102746904],[126.90421898970312,37.37949076541679],[126.90420127464682,37.3794731900233],[126.90414466545498,37.379471179216935],[126.9041099039367,37.37947783614012],[126.90412087306117,37.37938602253937],[126.90412975415934,37.37933726681615],[126.90414506115083,37.37926989236195],[126.90421266578163,37.37916823219411],[126.9043038083716,37.379077592750996],[126.90432757013721,37.37904656323338],[126.90433006215878,37.37902280546337],[126.90433184774076,37.37900402072649],[126.90432376314126,37.37896063912583],[126.90431804654452,37.37894586675977],[126.90432693924797,37.37892297922543],[126.90432931818964,37.378916854264645],[126.90435485180367,37.37890389158734],[126.9043928065742,37.37887229706291],[126.9044316678182,37.378846938307866],[126.90449082759893,37.378831912837526],[126.90454302178894,37.37881629596577],[126.90460385432257,37.37879110833826],[126.90465713330546,37.37878353838681],[126.90466804151467,37.37875606630002],[126.904671756644,37.3787468879785],[126.90472805228057,37.37873768962418],[126.90477177465725,37.37874255484552],[126.90479864562066,37.37876072330396],[126.90484217366628,37.378785059318226],[126.90493533598612,37.3788089493065],[126.90497604358107,37.37883161608676],[126.905056396071,37.37889571692255],[126.90511113874238,37.37892665742708],[126.90511128955596,37.378914683034054],[126.90508436263606,37.37887838613926],[126.90506456885232,37.37884410432307],[126.9050362729015,37.37880126491699],[126.90501094160176,37.37874456127075],[126.90499717604757,37.37872871015913],[126.90498032355835,37.37869882769124],[126.90492877011914,37.37866394327487],[126.90495034485087,37.378612386675485],[126.90493605839104,37.37858895757776],[126.90490199613244,37.37852615590138],[126.9048706141489,37.378451165643696],[126.90484801885657,37.37837418230042],[126.904834435174,37.37829588182314],[126.90482996389076,37.37821688599911],[126.90483152191858,37.37819055054263],[126.90476069330512,37.37819287130955],[126.9045914689332,37.37820286920142],[126.90436413887218,37.37821631508515],[126.90366522236314,37.37825764525157],[126.90212324214443,37.37782550216815],[126.90053600230905,37.377016359772],[126.89967259228976,37.37680842156821],[126.90298571252907,37.379672173364135],[126.90355765234621,37.38046652533433],[126.9041633351293,37.38175518190123],[126.90349740542835,37.382235441341344],[126.9035324737954,37.38231506619382],[126.9043570028229,37.38240931695348],[126.90461971493082,37.38271639163987],[126.90444998320581,37.383164706336586],[126.9043794215704,37.38378806158078],[126.9043348659144,37.3841816879744],[126.90441348460683,37.38420205244166],[126.9045251416565,37.384240329125994],[126.90461329140872,37.384251177535],[126.90469083983197,37.384269774949175],[126.90473846760722,37.38428705037005]]]]}},{"type":"Feature","properties":{"pnu":"4117110200200450052","names":["석수1동 경수산업도로 사면"],"n":1,"dong":"석수동","sgg":"만안구","san":true,"jibun":"산 45-52","addr":"경기도 안양시 만안구 석수동 산 45-52","jimok":null,"lon":126.913487,"lat":37.417301,"source":"행정안전부 급경사지 현황(공공데이터포털 15083292, 기준 2026-06) + 브이월드 연속지적도(LP_PA_CBND_BUBUN)","asof":"2026-06-30"},"geometry":{"type":"MultiPolygon","coordinates":[[[[126.91339916278386,37.41729340165565],[126.91337765181136,37.41730525193924],[126.91336936604824,37.417329212659205],[126.91342421881018,37.417399018834246],[126.91355359115732,37.41739425870342],[126.91358902156867,37.417351505047456],[126.91364283273961,37.41721075304733],[126.91361777235315,37.41718599265253],[126.91350081910981,37.41724526426568],[126.91339916278386,37.41729340165565]]]]}},{"type":"Feature","properties":{"pnu":"4117110200201230004","names":["수도권 경부선2"],"n":1,"dong":"석수동","sgg":"만안구","san":true,"jibun":"산 123-4","addr":"경기도 안양시 만안구 석수동 산 123-4","jimok":null,"lon":126.90695,"lat":37.422124,"source":"행정안전부 급경사지 현황(공공데이터포털 15083292, 기준 2026-06) + 브이월드 연속지적도(LP_PA_CBND_BUBUN)","asof":"2026-06-30"},"geometry":{"type":"MultiPolygon","coordinates":[[[[126.90707187360012,37.4219946581991],[126.90713039873151,37.42192684984216],[126.90706582167029,37.42185707808486],[126.90704714991242,37.42182822182332],[126.90692438108846,37.42204635739453],[126.90686428028799,37.42220796857649],[126.90681057288258,37.42234310415084],[126.90676005626847,37.42248309870054],[126.90672017818554,37.42257190635015],[126.90697796484278,37.42210811045464],[126.90707187360012,37.4219946581991]]]]}},{"type":"Feature","properties":{"pnu":"4117110200105870008","names":["만안 석수 N1지구"],"n":1,"dong":"석수동","sgg":"만안구","san":false,"jibun":"587-8","addr":"경기도 안양시 만안구 석수동 587-8","jimok":null,"lon":126.892761,"lat":37.413453,"source":"행정안전부 급경사지 현황(공공데이터포털 15083292, 기준 2026-06) + 브이월드 연속지적도(LP_PA_CBND_BUBUN)","asof":"2026-06-30"},"geometry":{"type":"MultiPolygon","coordinates":[[[[126.89343080967554,37.41433035560981],[126.89336567929902,37.414218822913305],[126.89327768149272,37.41410266507876],[126.89324872894798,37.41393072557312],[126.89312825911986,37.413765333642864],[126.89307485232752,37.41359282204856],[126.89296113714047,37.41350653594247],[126.89272847029406,37.41333119247548],[126.892669121621,37.41326121935358],[126.89260179223805,37.41299252072904],[126.89257797105958,37.41281199911303],[126.89251734356917,37.4126349124578],[126.89249004988496,37.412512430789015],[126.89247930221818,37.41247722735948],[126.89246508791686,37.412542546612336],[126.89245124769266,37.41273939589867],[126.89243952971994,37.412905964131895],[126.8924207723709,37.4129726847617],[126.89243853059445,37.41309645509741],[126.89244651221911,37.41313851267414],[126.89247349869744,37.41313014914628],[126.89252545842179,37.41331011105694],[126.89253051898386,37.41348162328154],[126.89264789275684,37.41387283350296],[126.89267866398723,37.413918858470545],[126.89274586545609,37.41419865735346],[126.89289983008386,37.414495402854456],[126.89293328547278,37.41454468286815],[126.89343080967554,37.41433035560981]]]]}},{"type":"Feature","properties":{"pnu":"4117110200105870009","names":["만안 석수 N2지구","만안 석수 N3지구"],"n":2,"dong":"석수동","sgg":"만안구","san":false,"jibun":"587-9","addr":"경기도 안양시 만안구 석수동 587-9","jimok":null,"lon":126.893998,"lat":37.41158,"source":"행정안전부 급경사지 현황(공공데이터포털 15083292, 기준 2026-06) + 브이월드 연속지적도(LP_PA_CBND_BUBUN)","asof":"2026-06-30"},"geometry":{"type":"MultiPolygon","coordinates":[[[[126.89316922317174,37.41177742399869],[126.89328152733212,37.41178290589347],[126.89348972546625,37.4116978966073],[126.89391367536133,37.411852860770665],[126.89436359221416,37.4119785100003],[126.89460831271896,37.411938131925496],[126.8948031871679,37.41176116001904],[126.89518520239865,37.41172228312596],[126.89524101612157,37.411632727671694],[126.89532766019846,37.411227575398485],[126.89526765655211,37.411124950292994],[126.89508557625032,37.41109087244938],[126.89475264035545,37.41113167646721],[126.89432171517579,37.41122037865022],[126.89410242457492,37.411354628646265],[126.89385909281341,37.4113649942362],[126.89369002613007,37.41131437450358],[126.89359465665268,37.41147283856465],[126.89346199406314,37.41161191473442],[126.89346367466422,37.41162934184016],[126.8934387891382,37.41163031020937],[126.89331170367328,37.41170817655752],[126.89330164884,37.41171725856552],[126.89327475976683,37.411697591894566],[126.89326737746907,37.411686259417024],[126.89320013326014,37.41174232186572],[126.89316922317174,37.41177742399869]]]]}},{"type":"Feature","properties":{"pnu":"4117110200201620026","names":["만안 석수 N4지구","만안 석수 N5지구","만안 석수 N6지구"],"n":3,"dong":"석수동","sgg":"만안구","san":true,"jibun":"산 162-26","addr":"경기도 안양시 만안구 석수동 산 162-26","jimok":null,"lon":126.905123,"lat":37.411199,"source":"행정안전부 급경사지 현황(공공데이터포털 15083292, 기준 2026-06) + 브이월드 연속지적도(LP_PA_CBND_BUBUN)","asof":"2026-06-30"},"geometry":{"type":"MultiPolygon","coordinates":[[[[126.90473379107739,37.4106215547944],[126.90445096141052,37.41058066027996],[126.90424580184438,37.41066007808747],[126.90417042860886,37.41082508147673],[126.90419169452082,37.41119445986912],[126.90451826596632,37.41120643236501],[126.90482388720027,37.41121618835933],[126.9044693367527,37.411335525260334],[126.90432453351816,37.41138381769972],[126.9043421524991,37.41139414876832],[126.90444139415938,37.41141234963768],[126.90447379488107,37.411417133577224],[126.90448338272435,37.41140997840031],[126.90455470346794,37.41135682313757],[126.90464925339505,37.411351881996566],[126.90468855316989,37.411349832847826],[126.90478696450457,37.411390098531555],[126.90490113622698,37.41143681924791],[126.9049877070137,37.41144424221119],[126.90516925972547,37.41145346347659],[126.90539723465581,37.411367395138186],[126.90553785741487,37.41136369808651],[126.90556284396013,37.411363042606794],[126.90602265512334,37.411350926824355],[126.90605020424344,37.41138706163216],[126.90598715582009,37.41161580468943],[126.90595542164907,37.41173528927528],[126.90596627985292,37.411732811257174],[126.90598041472158,37.411729588045674],[126.90603287736396,37.411715998111376],[126.90635136251211,37.41052338697546],[126.90605473463573,37.41069198853428],[126.90603071866565,37.410755778821446],[126.90585657619424,37.410649733100655],[126.90542679765838,37.41062245337027],[126.90520032544832,37.41069233181425],[126.90473379107739,37.4106215547944]]]]}},{"type":"Feature","properties":{"pnu":"4117110200200300002","names":["만안 석수 N7지구"],"n":1,"dong":"석수동","sgg":"만안구","san":true,"jibun":"산 30-2","addr":"경기도 안양시 만안구 석수동 산 30-2","jimok":null,"lon":126.923307,"lat":37.420538,"source":"행정안전부 급경사지 현황(공공데이터포털 15083292, 기준 2026-06) + 브이월드 연속지적도(LP_PA_CBND_BUBUN)","asof":"2026-06-30"},"geometry":{"type":"MultiPolygon","coordinates":[[[[126.92369190164972,37.419940992272544],[126.92357572274489,37.41976891277412],[126.92316356877313,37.41948869628139],[126.92290491993269,37.41933589334596],[126.92282835994195,37.41930547834981],[126.92274612467065,37.41930082843537],[126.92268803935197,37.41932007135668],[126.922582632065,37.419436141338224],[126.92258060284256,37.41964742703456],[126.92260133954419,37.41969447364403],[126.92266202937157,37.41977731703321],[126.92287434498388,37.41994666827876],[126.92307118263078,37.42011817129621],[126.92314255375962,37.42014209541418],[126.92321809482353,37.42017557296492],[126.92334803652213,37.42036613262328],[126.92325665801904,37.42057051151076],[126.92311356687975,37.42063979453501],[126.92287216592226,37.420410056674974],[126.92277578649446,37.42031835973349],[126.92271653703787,37.42026191698566],[126.92274009635152,37.42033231063598],[126.92267236934008,37.42058229597111],[126.92291933242461,37.42141348055217],[126.92326865027852,37.42138974537226],[126.9232192205738,37.421297052717605],[126.92326354475965,37.42128045841665],[126.92327793783889,37.4212472296603],[126.92332308422952,37.4212003799441],[126.9233197899199,37.421174401628875],[126.92332669089478,37.42116497261154],[126.92332519112102,37.42111888492557],[126.92330854203448,37.42110543984501],[126.92323730711978,37.42115593939978],[126.92318263291743,37.42117448202744],[126.92314390086749,37.42114764228283],[126.92316579682581,37.42113452006001],[126.92316719931188,37.42108955154831],[126.9231845247016,37.4210718851993],[126.92320062630091,37.42101438435609],[126.92338168628118,37.42085898069885],[126.92353014764812,37.420807621997746],[126.92395585829675,37.42099729447686],[126.92406206106487,37.42108515857724],[126.92420562655946,37.42133467030422],[126.924172342164,37.42150270503216],[126.92428623674519,37.42143894288412],[126.92409684429738,37.421041455311894],[126.92412363053332,37.420645181317866],[126.92415755377044,37.42027314014066],[126.9240714923827,37.42025299125944],[126.92387039060225,37.420160595857794],[126.92384138218716,37.420136880219864],[126.92376837694877,37.42005429964583],[126.92369190164972,37.419940992272544]]]]}},{"type":"Feature","properties":{"pnu":"4117110300100940155","names":["만안 박달 N1지구"],"n":1,"dong":"박달동","sgg":"만안구","san":false,"jibun":"94-155","addr":"경기도 안양시 만안구 박달동 94-155","jimok":null,"lon":126.909058,"lat":37.399366,"source":"행정안전부 급경사지 현황(공공데이터포털 15083292, 기준 2026-06) + 브이월드 연속지적도(LP_PA_CBND_BUBUN)","asof":"2026-06-30"},"geometry":{"type":"MultiPolygon","coordinates":[[[[126.9086136609104,37.3982923833586],[126.90851663451224,37.39839565340541],[126.90784816036846,37.398673539141576],[126.90770940877452,37.398726408780306],[126.90790947407966,37.39922699045582],[126.9079095641491,37.3992272157806],[126.90798479467811,37.39941554215832],[126.9091693096996,37.3993926863249],[126.90917454778534,37.40000204607465],[126.9094255807294,37.40042245663071],[126.9094311822991,37.400431849555865],[126.90966775756682,37.40036526842352],[126.90992087737034,37.400252747931326],[126.91016020591063,37.400150127392784],[126.91012186879614,37.400099100389795],[126.90996370485634,37.3998618312129],[126.91039013304483,37.39904358946859],[126.90959206981755,37.398623639897025],[126.90902863788598,37.39843443814578],[126.9086136609104,37.3982923833586]]]]}},{"type":"Feature","properties":{"pnu":"4117110300100940056","names":["만안 박달 N2지구","만안 박달 N3지구"],"n":2,"dong":"박달동","sgg":"만안구","san":false,"jibun":"94-56","addr":"경기도 안양시 만안구 박달동 94-56","jimok":null,"lon":126.910093,"lat":37.401021,"source":"행정안전부 급경사지 현황(공공데이터포털 15083292, 기준 2026-06) + 브이월드 연속지적도(LP_PA_CBND_BUBUN)","asof":"2026-06-30"},"geometry":{"type":"MultiPolygon","coordinates":[[[[126.91060877607295,37.40131795255733],[126.91039103792328,37.401113326960825],[126.9103603644799,37.40108449791432],[126.91038221750988,37.400814697208574],[126.9104093777095,37.40049891283488],[126.91028959829087,37.40033748497272],[126.91022048822158,37.40023741911111],[126.9092603852416,37.40072635692364],[126.90937725781556,37.40093612293438],[126.90959440455528,37.40113219932291],[126.90972423392711,37.40124854894818],[126.9098033188758,37.40131917769514],[126.90990423110195,37.40131905769294],[126.91005857540178,37.40131888883997],[126.91021799110558,37.401318399336155],[126.91036982848301,37.40131793981704],[126.91060877607295,37.40131795255733]]]]}},{"type":"Feature","properties":{"pnu":"4117110300106170066","names":["만안 박달 N4지구"],"n":1,"dong":"박달동","sgg":"만안구","san":false,"jibun":"617-66","addr":"경기도 안양시 만안구 박달동 617-66","jimok":null,"lon":126.888616,"lat":37.405603,"source":"행정안전부 급경사지 현황(공공데이터포털 15083292, 기준 2026-06) + 브이월드 연속지적도(LP_PA_CBND_BUBUN)","asof":"2026-06-30"},"geometry":{"type":"MultiPolygon","coordinates":[[[[126.88778641261213,37.40546992314941],[126.88816974968104,37.40562194067988],[126.88847449619868,37.405678653822186],[126.88873398934356,37.40571765416548],[126.88907475390005,37.40571492425631],[126.88929416577749,37.4056003526746],[126.88942255657099,37.40554434135683],[126.88880362679016,37.40560824751288],[126.88778641261213,37.40546992314941]]]]}},{"type":"Feature","properties":{"pnu":"4117110300200270012","names":["박달동 산27-12 사면"],"n":1,"dong":"박달동","sgg":"만안구","san":true,"jibun":"산 27-12","addr":"경기도 안양시 만안구 박달동 산 27-12","jimok":null,"lon":126.896757,"lat":37.402179,"source":"행정안전부 급경사지 현황(공공데이터포털 15083292, 기준 2026-06) + 브이월드 연속지적도(LP_PA_CBND_BUBUN)","asof":"2026-06-30"},"geometry":{"type":"MultiPolygon","coordinates":[[[[126.89676370183945,37.402255076535816],[126.89702061557233,37.4020965903374],[126.89723548488698,37.401910297273105],[126.89692236687979,37.401983534418505],[126.89676966366567,37.402020818340134],[126.89640364064235,37.402265569189694],[126.89651017834359,37.40237089319021],[126.89654180767876,37.40235065748256],[126.89664256591024,37.40228373852253],[126.89676370183945,37.402255076535816]]]]}},{"type":"Feature","properties":{"pnu":"4117310100104880113","names":["동안 비산 N1지구"],"n":1,"dong":"비산동","sgg":"동안구","san":false,"jibun":"488-113","addr":"경기도 안양시 동안구 비산동 488-113","jimok":null,"lon":126.93634,"lat":37.403614,"source":"행정안전부 급경사지 현황(공공데이터포털 15083292, 기준 2026-06) + 브이월드 연속지적도(LP_PA_CBND_BUBUN)","asof":"2026-06-30"},"geometry":{"type":"MultiPolygon","coordinates":[[[[126.93571873745563,37.40390640690184],[126.93595507819626,37.40396528424027],[126.93646799669449,37.40405098356467],[126.93694707385923,37.40395745063713],[126.93725720054167,37.403978613180136],[126.93704588556668,37.40357880862638],[126.93677146105536,37.40341440394713],[126.9363829114015,37.403181639001666],[126.93633697870587,37.40315413278234],[126.93632026052157,37.4031441223168],[126.93573609251946,37.403304179201605],[126.93576567935759,37.403438356556535],[126.93571873745563,37.40390640690184]]]]}},{"type":"Feature","properties":{"pnu":"4117310200117880000","names":["동안 관양 N1지구","동안 관양 N2지구"],"n":2,"dong":"관양동","sgg":"동안구","san":false,"jibun":"1788","addr":"경기도 안양시 동안구 관양동 1788","jimok":null,"lon":126.974852,"lat":37.408289,"source":"행정안전부 급경사지 현황(공공데이터포털 15083292, 기준 2026-06) + 브이월드 연속지적도(LP_PA_CBND_BUBUN)","asof":"2026-06-30"},"geometry":{"type":"MultiPolygon","coordinates":[[[[126.97464576776018,37.408519619310205],[126.97467907957885,37.40854413442255],[126.97480803400991,37.40851747561913],[126.97481872987288,37.408519171938366],[126.97482980347235,37.408506776501945],[126.97501153595567,37.40845892854399],[126.97520935070631,37.40844827769346],[126.97542050948934,37.408424411599555],[126.97561504984021,37.408377097136515],[126.9757563450977,37.40806539557975],[126.97558401336366,37.40794400049171],[126.97552479213464,37.40794817720012],[126.97529805036493,37.40796407507475],[126.9750566495199,37.40797439196582],[126.9747883956665,37.40799784807548],[126.97464279840229,37.40801005984292],[126.97451855624344,37.408064209446785],[126.9743342594711,37.40823977463059],[126.97428994614202,37.40827871522084],[126.97435127446789,37.40828952345844],[126.9743993826356,37.408314042048545],[126.97440559099839,37.40832494572709],[126.97442827982918,37.4083645954902],[126.97449151261165,37.408419391536256],[126.97460263186774,37.40848771364804],[126.97464576776018,37.408519619310205]]]]}},{"type":"Feature","properties":{"pnu":"4117310200117920000","names":["동안 관양 N3지구"],"n":1,"dong":"관양동","sgg":"동안구","san":false,"jibun":"1792","addr":"경기도 안양시 동안구 관양동 1792","jimok":null,"lon":126.975014,"lat":37.403952,"source":"행정안전부 급경사지 현황(공공데이터포털 15083292, 기준 2026-06) + 브이월드 연속지적도(LP_PA_CBND_BUBUN)","asof":"2026-06-30"},"geometry":{"type":"MultiPolygon","coordinates":[[[[126.97603748300651,37.403715364796945],[126.97593030959601,37.4036850676038],[126.9756493374293,37.403591931782856],[126.9754766698402,37.40352467827894],[126.9753007214251,37.40347400244443],[126.97520043562123,37.4034510944265],[126.97495122966325,37.40360042675674],[126.97430640751581,37.40398672484575],[126.97437538441126,37.4040755806247],[126.97442188911245,37.40415442996633],[126.97446545301143,37.40424535219608],[126.97448723187783,37.404299508083376],[126.97452639070278,37.40439151049769],[126.97447533153667,37.40441402416904],[126.97446062521827,37.40447934427765],[126.97513482790434,37.40438227725397],[126.97603748300651,37.403715364796945]]]]}},{"type":"Feature","properties":{"pnu":"4117310200103480009","names":["동안 관양 N4지구"],"n":1,"dong":"관양동","sgg":"동안구","san":false,"jibun":"348-9","addr":"경기도 안양시 동안구 관양동 348-9","jimok":null,"lon":126.96315,"lat":37.406975,"source":"행정안전부 급경사지 현황(공공데이터포털 15083292, 기준 2026-06) + 브이월드 연속지적도(LP_PA_CBND_BUBUN)","asof":"2026-06-30"},"geometry":{"type":"MultiPolygon","coordinates":[[[[126.96304544831779,37.407233462170886],[126.96306824925914,37.40726239210213],[126.96363598719246,37.40715229134553],[126.96349611915406,37.407002317898815],[126.96337420076217,37.40687154165101],[126.96327607515633,37.40681898090148],[126.96317070505809,37.406797682872984],[126.96310123987558,37.40680135448055],[126.96306985093078,37.40678035067616],[126.96306137533279,37.40678908774654],[126.96302746877348,37.406832145137685],[126.96302543436397,37.406834757413286],[126.96302509514973,37.406835478113265],[126.96301277136111,37.40685971135123],[126.96300064620686,37.40693719452086],[126.96317370156076,37.40712358024465],[126.96311132896084,37.40717212460304],[126.96312859797925,37.40719600705371],[126.96304544831779,37.407233462170886]]]]}},{"type":"Feature","properties":{"pnu":"4117310400101650005","names":["동안 호계 N1지구","동안 호계 N2지구"],"n":2,"dong":"호계동","sgg":"동안구","san":false,"jibun":"165-5","addr":"경기도 안양시 동안구 호계동 165-5","jimok":null,"lon":126.941109,"lat":37.379946,"source":"행정안전부 급경사지 현황(공공데이터포털 15083292, 기준 2026-06) + 브이월드 연속지적도(LP_PA_CBND_BUBUN)","asof":"2026-06-30"},"geometry":{"type":"MultiPolygon","coordinates":[[[[126.94135039026163,37.38013837272729],[126.94147486624854,37.38006040790388],[126.94141142454993,37.37990287790176],[126.94132912032802,37.379895627913385],[126.94126499770489,37.37988415235044],[126.94121952281243,37.37985034103703],[126.94115076307482,37.37984877423593],[126.94105962803347,37.37987152342121],[126.94086891833506,37.379881427079745],[126.94076709454481,37.3798574978744],[126.94074507719434,37.379857846971035],[126.9404100432877,37.38002715566805],[126.94112115104645,37.380027160497086],[126.94135039026163,37.38013837272729]]]]}},{"type":"Feature","properties":{"pnu":"4117310400105830004","names":["동안 호계 N3지구"],"n":1,"dong":"호계동","sgg":"동안구","san":false,"jibun":"583-4","addr":"경기도 안양시 동안구 호계동 583-4","jimok":null,"lon":126.946734,"lat":37.376153,"source":"행정안전부 급경사지 현황(공공데이터포털 15083292, 기준 2026-06) + 브이월드 연속지적도(LP_PA_CBND_BUBUN)","asof":"2026-06-30"},"geometry":{"type":"MultiPolygon","coordinates":[[[[126.94640969217886,37.376591820904125],[126.94663605471601,37.37644821383643],[126.94680271534396,37.37627088067152],[126.9469079459788,37.37610775500135],[126.94698596321844,37.375949482186115],[126.94704343764919,37.37578336100228],[126.94701000141687,37.37565116629823],[126.94694595332055,37.3756964579599],[126.94691997259189,37.375714826732874],[126.94689813707902,37.3757775274863],[126.94675013096969,37.376076687030675],[126.94667988823036,37.37625577679885],[126.94656879935295,37.376400518781054],[126.94639256598025,37.37654387878786],[126.94639084098492,37.3765868565235],[126.94640969217886,37.376591820904125]]]]}}]}